<?xml version="1.0" encoding="UTF-8"?>
<gpx xmlns="http://www.topografix.com/GPX/1/1" version="1.1" creator="pennsylvania-trip">
  <metadata>
    <name>Day 3 — Ramsey Drive to Jersey Shore</name>
    <link href="https://ridewithgps.com/routes/57094763"><text>Hirschl family bike ride october '26</text></link>
  </metadata>
  <trk>
    <name>Day 3 — Ramsey Drive to Jersey Shore</name>
    <trkseg>
      <trkpt lat="41.28402" lon="-77.32838"><ele>185.0</ele></trkpt>
      <trkpt lat="41.28434" lon="-77.32733"><ele>185.3</ele></trkpt>
      <trkpt lat="41.28444" lon="-77.3269"><ele>185.6</ele></trkpt>
      <trkpt lat="41.28449" lon="-77.32662"><ele>185.8</ele></trkpt>
      <trkpt lat="41.28453" lon="-77.32631"><ele>186.1</ele></trkpt>
      <trkpt lat="41.28454" lon="-77.32606"><ele>186.3</ele></trkpt>
      <trkpt lat="41.28455" lon="-77.32583"><ele>186.6</ele></trkpt>
      <trkpt lat="41.28454" lon="-77.32557"><ele>186.6</ele></trkpt>
      <trkpt lat="41.28452" lon="-77.32531"><ele>186.3</ele></trkpt>
      <trkpt lat="41.28448" lon="-77.32508"><ele>185.6</ele></trkpt>
      <trkpt lat="41.28438" lon="-77.32457"><ele>184.6</ele></trkpt>
      <trkpt lat="41.28419" lon="-77.32385"><ele>184.5</ele></trkpt>
      <trkpt lat="41.28403" lon="-77.32354"><ele>184.4</ele></trkpt>
      <trkpt lat="41.28382" lon="-77.32317"><ele>183.8</ele></trkpt>
      <trkpt lat="41.28356" lon="-77.32277"><ele>183.5</ele></trkpt>
      <trkpt lat="41.28309" lon="-77.32215"><ele>183.1</ele></trkpt>
      <trkpt lat="41.28262" lon="-77.32153"><ele>182.8</ele></trkpt>
      <trkpt lat="41.28247" lon="-77.32134"><ele>182.7</ele></trkpt>
      <trkpt lat="41.28223" lon="-77.32106"><ele>182.7</ele></trkpt>
      <trkpt lat="41.28193" lon="-77.32076"><ele>182.7</ele></trkpt>
      <trkpt lat="41.28143" lon="-77.32041"><ele>182.7</ele></trkpt>
      <trkpt lat="41.28108" lon="-77.32024"><ele>182.8</ele></trkpt>
      <trkpt lat="41.28083" lon="-77.32015"><ele>182.9</ele></trkpt>
      <trkpt lat="41.28052" lon="-77.32007"><ele>183.5</ele></trkpt>
      <trkpt lat="41.28016" lon="-77.32004"><ele>184.0</ele></trkpt>
      <trkpt lat="41.27983" lon="-77.32004"><ele>185.3</ele></trkpt>
      <trkpt lat="41.27938" lon="-77.32011"><ele>186.3</ele></trkpt>
      <trkpt lat="41.27898" lon="-77.32025"><ele>185.5</ele></trkpt>
      <trkpt lat="41.27862" lon="-77.32044"><ele>185.5</ele></trkpt>
      <trkpt lat="41.27822" lon="-77.3207"><ele>185.3</ele></trkpt>
      <trkpt lat="41.27782" lon="-77.32109"><ele>184.8</ele></trkpt>
      <trkpt lat="41.27748" lon="-77.32151"><ele>185.3</ele></trkpt>
      <trkpt lat="41.27723" lon="-77.32192"><ele>185.9</ele></trkpt>
      <trkpt lat="41.27701" lon="-77.32231"><ele>186.0</ele></trkpt>
      <trkpt lat="41.27674" lon="-77.32284"><ele>186.0</ele></trkpt>
      <trkpt lat="41.27646" lon="-77.32337"><ele>186.2</ele></trkpt>
      <trkpt lat="41.2761" lon="-77.3241"><ele>185.5</ele></trkpt>
      <trkpt lat="41.27573" lon="-77.32483"><ele>184.9</ele></trkpt>
      <trkpt lat="41.27527" lon="-77.32574"><ele>184.6</ele></trkpt>
      <trkpt lat="41.27481" lon="-77.32665"><ele>184.9</ele></trkpt>
      <trkpt lat="41.27435" lon="-77.32756"><ele>185.0</ele></trkpt>
      <trkpt lat="41.27388" lon="-77.32848"><ele>184.8</ele></trkpt>
      <trkpt lat="41.27342" lon="-77.32939"><ele>185.4</ele></trkpt>
      <trkpt lat="41.27305" lon="-77.33009"><ele>185.9</ele></trkpt>
      <trkpt lat="41.27263" lon="-77.33069"><ele>183.3</ele></trkpt>
      <trkpt lat="41.27219" lon="-77.33123"><ele>182.4</ele></trkpt>
      <trkpt lat="41.2719" lon="-77.33156"><ele>181.7</ele></trkpt>
      <trkpt lat="41.27149" lon="-77.33189"><ele>180.3</ele></trkpt>
      <trkpt lat="41.27113" lon="-77.33213"><ele>180.3</ele></trkpt>
      <trkpt lat="41.27074" lon="-77.33234"><ele>176.6</ele></trkpt>
      <trkpt lat="41.27042" lon="-77.33249"><ele>179.2</ele></trkpt>
      <trkpt lat="41.26985" lon="-77.33271"><ele>178.7</ele></trkpt>
      <trkpt lat="41.26919" lon="-77.33304"><ele>178.7</ele></trkpt>
      <trkpt lat="41.26854" lon="-77.33337"><ele>178.4</ele></trkpt>
      <trkpt lat="41.26788" lon="-77.33371"><ele>178.8</ele></trkpt>
      <trkpt lat="41.26709" lon="-77.33416"><ele>179.8</ele></trkpt>
      <trkpt lat="41.26667" lon="-77.33435"><ele>178.7</ele></trkpt>
      <trkpt lat="41.26592" lon="-77.33471"><ele>179.4</ele></trkpt>
      <trkpt lat="41.26511" lon="-77.33513"><ele>179.5</ele></trkpt>
      <trkpt lat="41.26445" lon="-77.33544"><ele>179.2</ele></trkpt>
      <trkpt lat="41.26387" lon="-77.33567"><ele>180.9</ele></trkpt>
      <trkpt lat="41.26327" lon="-77.33588"><ele>183.8</ele></trkpt>
      <trkpt lat="41.26268" lon="-77.33599"><ele>184.0</ele></trkpt>
      <trkpt lat="41.26217" lon="-77.33606"><ele>183.5</ele></trkpt>
      <trkpt lat="41.26177" lon="-77.33609"><ele>183.2</ele></trkpt>
      <trkpt lat="41.26142" lon="-77.33608"><ele>182.8</ele></trkpt>
      <trkpt lat="41.26087" lon="-77.33601"><ele>182.2</ele></trkpt>
      <trkpt lat="41.26023" lon="-77.33584"><ele>182.1</ele></trkpt>
      <trkpt lat="41.2595" lon="-77.3356"><ele>181.7</ele></trkpt>
      <trkpt lat="41.25879" lon="-77.33524"><ele>181.9</ele></trkpt>
      <trkpt lat="41.25817" lon="-77.33484"><ele>181.7</ele></trkpt>
      <trkpt lat="41.25765" lon="-77.33449"><ele>181.7</ele></trkpt>
      <trkpt lat="41.25715" lon="-77.33408"><ele>181.1</ele></trkpt>
      <trkpt lat="41.25664" lon="-77.33368"><ele>181.3</ele></trkpt>
      <trkpt lat="41.25641" lon="-77.33346"><ele>182.3</ele></trkpt>
      <trkpt lat="41.2558" lon="-77.33282"><ele>183.7</ele></trkpt>
      <trkpt lat="41.25519" lon="-77.33217"><ele>183.7</ele></trkpt>
      <trkpt lat="41.25458" lon="-77.33151"><ele>181.5</ele></trkpt>
      <trkpt lat="41.25398" lon="-77.33085"><ele>181.4</ele></trkpt>
      <trkpt lat="41.25337" lon="-77.33019"><ele>179.3</ele></trkpt>
      <trkpt lat="41.25299" lon="-77.32981"><ele>180.2</ele></trkpt>
      <trkpt lat="41.25257" lon="-77.32944"><ele>181.5</ele></trkpt>
      <trkpt lat="41.25216" lon="-77.32907"><ele>181.3</ele></trkpt>
      <trkpt lat="41.2516" lon="-77.32866"><ele>180.3</ele></trkpt>
      <trkpt lat="41.25105" lon="-77.32825"><ele>178.4</ele></trkpt>
      <trkpt lat="41.25061" lon="-77.32799"><ele>178.5</ele></trkpt>
      <trkpt lat="41.25024" lon="-77.32781"><ele>179.6</ele></trkpt>
      <trkpt lat="41.24986" lon="-77.3277"><ele>179.1</ele></trkpt>
      <trkpt lat="41.24952" lon="-77.32763"><ele>178.7</ele></trkpt>
      <trkpt lat="41.24908" lon="-77.32759"><ele>178.5</ele></trkpt>
      <trkpt lat="41.2484" lon="-77.32754"><ele>178.2</ele></trkpt>
      <trkpt lat="41.24772" lon="-77.32749"><ele>177.3</ele></trkpt>
      <trkpt lat="41.24687" lon="-77.32746"><ele>177.4</ele></trkpt>
      <trkpt lat="41.2466" lon="-77.32746"><ele>177.5</ele></trkpt>
      <trkpt lat="41.24635" lon="-77.32749"><ele>177.2</ele></trkpt>
      <trkpt lat="41.24611" lon="-77.32755"><ele>177.0</ele></trkpt>
      <trkpt lat="41.24584" lon="-77.32762"><ele>177.1</ele></trkpt>
      <trkpt lat="41.24557" lon="-77.32773"><ele>177.5</ele></trkpt>
      <trkpt lat="41.24534" lon="-77.32785"><ele>177.9</ele></trkpt>
      <trkpt lat="41.24492" lon="-77.32812"><ele>177.7</ele></trkpt>
      <trkpt lat="41.24471" lon="-77.32828"><ele>177.6</ele></trkpt>
      <trkpt lat="41.24451" lon="-77.32847"><ele>177.4</ele></trkpt>
      <trkpt lat="41.24427" lon="-77.32872"><ele>177.2</ele></trkpt>
      <trkpt lat="41.24408" lon="-77.32896"><ele>177.2</ele></trkpt>
      <trkpt lat="41.24391" lon="-77.3292"><ele>177.3</ele></trkpt>
      <trkpt lat="41.24373" lon="-77.32949"><ele>177.5</ele></trkpt>
      <trkpt lat="41.24356" lon="-77.3298"><ele>177.2</ele></trkpt>
      <trkpt lat="41.24321" lon="-77.3305"><ele>177.5</ele></trkpt>
      <trkpt lat="41.24292" lon="-77.33111"><ele>178.2</ele></trkpt>
      <trkpt lat="41.24258" lon="-77.33179"><ele>177.3</ele></trkpt>
      <trkpt lat="41.2424" lon="-77.33211"><ele>176.8</ele></trkpt>
      <trkpt lat="41.2422" lon="-77.33239"><ele>176.8</ele></trkpt>
      <trkpt lat="41.24205" lon="-77.33257"><ele>176.8</ele></trkpt>
      <trkpt lat="41.24191" lon="-77.3327"><ele>176.8</ele></trkpt>
      <trkpt lat="41.24178" lon="-77.33282"><ele>176.8</ele></trkpt>
      <trkpt lat="41.24164" lon="-77.33293"><ele>176.8</ele></trkpt>
      <trkpt lat="41.24146" lon="-77.33305"><ele>176.5</ele></trkpt>
      <trkpt lat="41.24122" lon="-77.33317"><ele>176.0</ele></trkpt>
      <trkpt lat="41.24083" lon="-77.33331"><ele>176.9</ele></trkpt>
      <trkpt lat="41.2404" lon="-77.33336"><ele>176.8</ele></trkpt>
      <trkpt lat="41.24003" lon="-77.33338"><ele>176.9</ele></trkpt>
      <trkpt lat="41.23938" lon="-77.33337"><ele>177.1</ele></trkpt>
      <trkpt lat="41.23873" lon="-77.33336"><ele>177.3</ele></trkpt>
      <trkpt lat="41.23788" lon="-77.33336"><ele>177.6</ele></trkpt>
      <trkpt lat="41.23702" lon="-77.33336"><ele>178.0</ele></trkpt>
      <trkpt lat="41.23617" lon="-77.33336"><ele>180.1</ele></trkpt>
      <trkpt lat="41.23532" lon="-77.33336"><ele>178.7</ele></trkpt>
      <trkpt lat="41.23486" lon="-77.33331"><ele>178.1</ele></trkpt>
      <trkpt lat="41.23451" lon="-77.33323"><ele>178.2</ele></trkpt>
      <trkpt lat="41.23417" lon="-77.33312"><ele>177.8</ele></trkpt>
      <trkpt lat="41.23384" lon="-77.33297"><ele>178.0</ele></trkpt>
      <trkpt lat="41.23355" lon="-77.33279"><ele>178.2</ele></trkpt>
      <trkpt lat="41.23329" lon="-77.33259"><ele>178.0</ele></trkpt>
      <trkpt lat="41.23303" lon="-77.33237"><ele>176.8</ele></trkpt>
      <trkpt lat="41.23272" lon="-77.33204"><ele>176.0</ele></trkpt>
      <trkpt lat="41.23243" lon="-77.33165"><ele>176.2</ele></trkpt>
      <trkpt lat="41.23204" lon="-77.33108"><ele>176.1</ele></trkpt>
      <trkpt lat="41.23166" lon="-77.33051"><ele>175.9</ele></trkpt>
      <trkpt lat="41.23119" lon="-77.32979"><ele>176.5</ele></trkpt>
      <trkpt lat="41.23072" lon="-77.32907"><ele>176.3</ele></trkpt>
      <trkpt lat="41.23033" lon="-77.32855"><ele>176.6</ele></trkpt>
      <trkpt lat="41.23002" lon="-77.32821"><ele>176.5</ele></trkpt>
      <trkpt lat="41.22977" lon="-77.32797"><ele>176.2</ele></trkpt>
      <trkpt lat="41.22903" lon="-77.32736"><ele>175.8</ele></trkpt>
      <trkpt lat="41.2284" lon="-77.32683"><ele>176.1</ele></trkpt>
      <trkpt lat="41.22778" lon="-77.32629"><ele>175.5</ele></trkpt>
      <trkpt lat="41.22716" lon="-77.32575"><ele>175.0</ele></trkpt>
      <trkpt lat="41.22678" lon="-77.32542"><ele>174.5</ele></trkpt>
      <trkpt lat="41.2264" lon="-77.32509"><ele>174.0</ele></trkpt>
      <trkpt lat="41.22567" lon="-77.32447"><ele>173.2</ele></trkpt>
      <trkpt lat="41.22494" lon="-77.32385"><ele>173.8</ele></trkpt>
      <trkpt lat="41.22421" lon="-77.32323"><ele>172.2</ele></trkpt>
      <trkpt lat="41.22348" lon="-77.32261"><ele>171.0</ele></trkpt>
      <trkpt lat="41.22305" lon="-77.32224"><ele>170.8</ele></trkpt>
      <trkpt lat="41.22263" lon="-77.32186"><ele>170.8</ele></trkpt>
      <trkpt lat="41.22234" lon="-77.32159"><ele>170.8</ele></trkpt>
      <trkpt lat="41.22189" lon="-77.32111"><ele>170.8</ele></trkpt>
      <trkpt lat="41.2215" lon="-77.32055"><ele>170.8</ele></trkpt>
      <trkpt lat="41.22133" lon="-77.32027"><ele>170.8</ele></trkpt>
      <trkpt lat="41.22119" lon="-77.32"><ele>170.8</ele></trkpt>
      <trkpt lat="41.22079" lon="-77.31916"><ele>170.8</ele></trkpt>
      <trkpt lat="41.2204" lon="-77.31832"><ele>174.5</ele></trkpt>
      <trkpt lat="41.22008" lon="-77.3176"><ele>170.2</ele></trkpt>
      <trkpt lat="41.2198" lon="-77.31708"><ele>174.7</ele></trkpt>
      <trkpt lat="41.21948" lon="-77.31652"><ele>178.3</ele></trkpt>
      <trkpt lat="41.21918" lon="-77.31608"><ele>178.0</ele></trkpt>
      <trkpt lat="41.21884" lon="-77.31564"><ele>174.6</ele></trkpt>
      <trkpt lat="41.21837" lon="-77.31509"><ele>175.0</ele></trkpt>
      <trkpt lat="41.21813" lon="-77.31484"><ele>177.4</ele></trkpt>
      <trkpt lat="41.21762" lon="-77.31434"><ele>176.4</ele></trkpt>
      <trkpt lat="41.21712" lon="-77.31382"><ele>174.2</ele></trkpt>
      <trkpt lat="41.21663" lon="-77.3133"><ele>175.6</ele></trkpt>
      <trkpt lat="41.21639" lon="-77.31303"><ele>174.7</ele></trkpt>
      <trkpt lat="41.21597" lon="-77.31248"><ele>170.5</ele></trkpt>
      <trkpt lat="41.21573" lon="-77.31212"><ele>173.1</ele></trkpt>
      <trkpt lat="41.21553" lon="-77.3118"><ele>174.9</ele></trkpt>
      <trkpt lat="41.21526" lon="-77.31133"><ele>175.0</ele></trkpt>
      <trkpt lat="41.21482" lon="-77.3105"><ele>175.1</ele></trkpt>
      <trkpt lat="41.21437" lon="-77.30966"><ele>178.6</ele></trkpt>
      <trkpt lat="41.21392" lon="-77.30883"><ele>180.9</ele></trkpt>
      <trkpt lat="41.21348" lon="-77.308"><ele>181.2</ele></trkpt>
      <trkpt lat="41.21318" lon="-77.30741"><ele>183.0</ele></trkpt>
      <trkpt lat="41.21299" lon="-77.30705"><ele>185.0</ele></trkpt>
      <trkpt lat="41.21285" lon="-77.30684"><ele>183.7</ele></trkpt>
      <trkpt lat="41.21271" lon="-77.30664"><ele>181.9</ele></trkpt>
      <trkpt lat="41.21258" lon="-77.30648"><ele>179.0</ele></trkpt>
      <trkpt lat="41.21236" lon="-77.30626"><ele>172.6</ele></trkpt>
      <trkpt lat="41.21228" lon="-77.3062"><ele>172.0</ele></trkpt>
      <trkpt lat="41.21206" lon="-77.30603"><ele>176.1</ele></trkpt>
      <trkpt lat="41.21175" lon="-77.30582"><ele>182.4</ele></trkpt>
      <trkpt lat="41.21143" lon="-77.30565"><ele>181.7</ele></trkpt>
      <trkpt lat="41.211" lon="-77.30537"><ele>183.1</ele></trkpt>
      <trkpt lat="41.21072" lon="-77.30514"><ele>183.1</ele></trkpt>
      <trkpt lat="41.21042" lon="-77.30482"><ele>183.1</ele></trkpt>
      <trkpt lat="41.21019" lon="-77.30455"><ele>181.7</ele></trkpt>
      <trkpt lat="41.2099" lon="-77.30414"><ele>178.2</ele></trkpt>
      <trkpt lat="41.20948" lon="-77.30352"><ele>180.2</ele></trkpt>
      <trkpt lat="41.20906" lon="-77.30291"><ele>178.5</ele></trkpt>
      <trkpt lat="41.20864" lon="-77.30229"><ele>178.2</ele></trkpt>
      <trkpt lat="41.20828" lon="-77.30182"><ele>178.9</ele></trkpt>
      <trkpt lat="41.20778" lon="-77.30122"><ele>176.7</ele></trkpt>
      <trkpt lat="41.20737" lon="-77.30071"><ele>178.2</ele></trkpt>
      <trkpt lat="41.20693" lon="-77.30019"><ele>179.3</ele></trkpt>
      <trkpt lat="41.20649" lon="-77.29974"><ele>179.3</ele></trkpt>
      <trkpt lat="41.20611" lon="-77.29937"><ele>178.2</ele></trkpt>
      <trkpt lat="41.20567" lon="-77.29902"><ele>178.4</ele></trkpt>
      <trkpt lat="41.20529" lon="-77.29879"><ele>179.3</ele></trkpt>
      <trkpt lat="41.20495" lon="-77.29854"><ele>178.6</ele></trkpt>
      <trkpt lat="41.20465" lon="-77.29828"><ele>177.9</ele></trkpt>
      <trkpt lat="41.20433" lon="-77.29794"><ele>178.1</ele></trkpt>
      <trkpt lat="41.20408" lon="-77.29765"><ele>181.4</ele></trkpt>
      <trkpt lat="41.20384" lon="-77.29739"><ele>178.5</ele></trkpt>
      <trkpt lat="41.20362" lon="-77.29718"><ele>178.5</ele></trkpt>
      <trkpt lat="41.20322" lon="-77.2969"><ele>180.3</ele></trkpt>
      <trkpt lat="41.20293" lon="-77.29671"><ele>176.2</ele></trkpt>
      <trkpt lat="41.2022" lon="-77.2963"><ele>175.4</ele></trkpt>
      <trkpt lat="41.20146" lon="-77.29589"><ele>181.3</ele></trkpt>
      <trkpt lat="41.20093" lon="-77.29557"><ele>175.3</ele></trkpt>
      <trkpt lat="41.20063" lon="-77.29531"><ele>176.2</ele></trkpt>
      <trkpt lat="41.20034" lon="-77.295"><ele>175.9</ele></trkpt>
      <trkpt lat="41.20013" lon="-77.29471"><ele>174.3</ele></trkpt>
      <trkpt lat="41.19994" lon="-77.29439"><ele>175.1</ele></trkpt>
      <trkpt lat="41.19979" lon="-77.29408"><ele>172.6</ele></trkpt>
      <trkpt lat="41.19959" lon="-77.29352"><ele>178.6</ele></trkpt>
      <trkpt lat="41.19945" lon="-77.29309"><ele>180.1</ele></trkpt>
      <trkpt lat="41.19932" lon="-77.29255"><ele>179.1</ele></trkpt>
      <trkpt lat="41.19927" lon="-77.29224"><ele>179.4</ele></trkpt>
      <trkpt lat="41.19923" lon="-77.29195"><ele>179.0</ele></trkpt>
      <trkpt lat="41.19919" lon="-77.29121"><ele>178.3</ele></trkpt>
      <trkpt lat="41.19918" lon="-77.291"><ele>178.1</ele></trkpt>
      <trkpt lat="41.19919" lon="-77.29069"><ele>177.8</ele></trkpt>
      <trkpt lat="41.19922" lon="-77.29032"><ele>177.2</ele></trkpt>
      <trkpt lat="41.19927" lon="-77.28998"><ele>177.4</ele></trkpt>
      <trkpt lat="41.19936" lon="-77.28948"><ele>178.9</ele></trkpt>
      <trkpt lat="41.19949" lon="-77.28887"><ele>182.0</ele></trkpt>
      <trkpt lat="41.19961" lon="-77.28841"><ele>182.2</ele></trkpt>
      <trkpt lat="41.19976" lon="-77.28796"><ele>182.5</ele></trkpt>
      <trkpt lat="41.19984" lon="-77.28768"><ele>182.6</ele></trkpt>
      <trkpt lat="41.19991" lon="-77.28739"><ele>182.9</ele></trkpt>
      <trkpt lat="41.20024" lon="-77.28658"><ele>184.0</ele></trkpt>
      <trkpt lat="41.20022" lon="-77.28655"><ele>183.6</ele></trkpt>
      <trkpt lat="41.20013" lon="-77.28649"><ele>182.0</ele></trkpt>
      <trkpt lat="41.20012" lon="-77.28647"><ele>181.8</ele></trkpt>
      <trkpt lat="41.20018" lon="-77.28628"><ele>182.2</ele></trkpt>
      <trkpt lat="41.20022" lon="-77.28613"><ele>181.7</ele></trkpt>
      <trkpt lat="41.20023" lon="-77.28599"><ele>180.3</ele></trkpt>
      <trkpt lat="41.20024" lon="-77.28578"><ele>178.3</ele></trkpt>
      <trkpt lat="41.20026" lon="-77.2857"><ele>177.9</ele></trkpt>
      <trkpt lat="41.20053" lon="-77.2846"><ele>177.9</ele></trkpt>
      <trkpt lat="41.20073" lon="-77.28372"><ele>177.5</ele></trkpt>
      <trkpt lat="41.20094" lon="-77.28285"><ele>176.9</ele></trkpt>
      <trkpt lat="41.20115" lon="-77.28197"><ele>180.9</ele></trkpt>
      <trkpt lat="41.20139" lon="-77.2812"><ele>182.8</ele></trkpt>
      <trkpt lat="41.20143" lon="-77.28108"><ele>182.8</ele></trkpt>
      <trkpt lat="41.20154" lon="-77.28055"><ele>183.4</ele></trkpt>
      <trkpt lat="41.20171" lon="-77.27989"><ele>183.3</ele></trkpt>
      <trkpt lat="41.20195" lon="-77.2789"><ele>182.9</ele></trkpt>
      <trkpt lat="41.20191" lon="-77.27877"><ele>183.3</ele></trkpt>
      <trkpt lat="41.20197" lon="-77.27852"><ele>183.1</ele></trkpt>
      <trkpt lat="41.20202" lon="-77.27821"><ele>183.2</ele></trkpt>
    </trkseg>
  </trk>
</gpx>
