<?xml version="1.0" encoding="UTF-8"?>
<gpx xmlns="http://www.topografix.com/GPX/1/1" version="1.1" creator="pennsylvania-trip">
  <metadata>
    <name>Day 2 — Morris to Ramsey Drive</name>
    <link href="https://ridewithgps.com/routes/57094763"><text>Hirschl family bike ride october '26</text></link>
  </metadata>
  <trk>
    <name>Day 2 — Morris to Ramsey Drive</name>
    <trkseg>
      <trkpt lat="41.56556" lon="-77.34615"><ele>282.6</ele></trkpt>
      <trkpt lat="41.56552" lon="-77.34628"><ele>282.4</ele></trkpt>
      <trkpt lat="41.56533" lon="-77.347"><ele>282.7</ele></trkpt>
      <trkpt lat="41.56525" lon="-77.3476"><ele>283.3</ele></trkpt>
      <trkpt lat="41.56525" lon="-77.3483"><ele>285.1</ele></trkpt>
      <trkpt lat="41.5653" lon="-77.34899"><ele>288.3</ele></trkpt>
      <trkpt lat="41.56535" lon="-77.34968"><ele>289.9</ele></trkpt>
      <trkpt lat="41.5655" lon="-77.35066"><ele>290.9</ele></trkpt>
      <trkpt lat="41.56566" lon="-77.35164"><ele>290.1</ele></trkpt>
      <trkpt lat="41.5656" lon="-77.35238"><ele>290.3</ele></trkpt>
      <trkpt lat="41.56555" lon="-77.35312"><ele>289.4</ele></trkpt>
      <trkpt lat="41.56533" lon="-77.35386"><ele>290.0</ele></trkpt>
      <trkpt lat="41.565" lon="-77.35476"><ele>286.5</ele></trkpt>
      <trkpt lat="41.56467" lon="-77.35566"><ele>285.7</ele></trkpt>
      <trkpt lat="41.56433" lon="-77.35657"><ele>284.9</ele></trkpt>
      <trkpt lat="41.56386" lon="-77.35721"><ele>283.5</ele></trkpt>
      <trkpt lat="41.56339" lon="-77.35786"><ele>279.3</ele></trkpt>
      <trkpt lat="41.56292" lon="-77.35851"><ele>277.6</ele></trkpt>
      <trkpt lat="41.56238" lon="-77.35924"><ele>277.5</ele></trkpt>
      <trkpt lat="41.56183" lon="-77.35997"><ele>281.2</ele></trkpt>
      <trkpt lat="41.56146" lon="-77.36042"><ele>277.4</ele></trkpt>
      <trkpt lat="41.56117" lon="-77.36098"><ele>275.1</ele></trkpt>
      <trkpt lat="41.56093" lon="-77.36174"><ele>275.7</ele></trkpt>
      <trkpt lat="41.56077" lon="-77.36241"><ele>275.2</ele></trkpt>
      <trkpt lat="41.56061" lon="-77.36309"><ele>277.5</ele></trkpt>
      <trkpt lat="41.56049" lon="-77.36382"><ele>280.6</ele></trkpt>
      <trkpt lat="41.5605" lon="-77.36461"><ele>279.0</ele></trkpt>
      <trkpt lat="41.56058" lon="-77.36536"><ele>277.2</ele></trkpt>
      <trkpt lat="41.56067" lon="-77.36612"><ele>280.2</ele></trkpt>
      <trkpt lat="41.56084" lon="-77.36682"><ele>280.4</ele></trkpt>
      <trkpt lat="41.56102" lon="-77.36752"><ele>280.7</ele></trkpt>
      <trkpt lat="41.56114" lon="-77.36795"><ele>279.7</ele></trkpt>
      <trkpt lat="41.56159" lon="-77.36892"><ele>273.0</ele></trkpt>
      <trkpt lat="41.56177" lon="-77.36926"><ele>269.7</ele></trkpt>
      <trkpt lat="41.56201" lon="-77.37001"><ele>268.7</ele></trkpt>
      <trkpt lat="41.56216" lon="-77.37098"><ele>269.2</ele></trkpt>
      <trkpt lat="41.5622" lon="-77.37157"><ele>269.2</ele></trkpt>
      <trkpt lat="41.56207" lon="-77.37206"><ele>269.7</ele></trkpt>
      <trkpt lat="41.56182" lon="-77.37251"><ele>269.5</ele></trkpt>
      <trkpt lat="41.56117" lon="-77.37331"><ele>269.1</ele></trkpt>
      <trkpt lat="41.56065" lon="-77.37406"><ele>269.6</ele></trkpt>
      <trkpt lat="41.56013" lon="-77.37482"><ele>269.4</ele></trkpt>
      <trkpt lat="41.55961" lon="-77.37558"><ele>269.9</ele></trkpt>
      <trkpt lat="41.55903" lon="-77.37628"><ele>269.1</ele></trkpt>
      <trkpt lat="41.5588" lon="-77.37654"><ele>268.5</ele></trkpt>
      <trkpt lat="41.55826" lon="-77.37687"><ele>266.9</ele></trkpt>
      <trkpt lat="41.55805" lon="-77.37694"><ele>266.1</ele></trkpt>
      <trkpt lat="41.5573" lon="-77.37698"><ele>266.1</ele></trkpt>
      <trkpt lat="41.55655" lon="-77.37703"><ele>264.5</ele></trkpt>
      <trkpt lat="41.55622" lon="-77.37714"><ele>263.5</ele></trkpt>
      <trkpt lat="41.55612" lon="-77.37728"><ele>262.3</ele></trkpt>
      <trkpt lat="41.55606" lon="-77.37743"><ele>262.9</ele></trkpt>
      <trkpt lat="41.55601" lon="-77.37759"><ele>263.5</ele></trkpt>
      <trkpt lat="41.55596" lon="-77.3778"><ele>264.3</ele></trkpt>
      <trkpt lat="41.55596" lon="-77.37818"><ele>265.7</ele></trkpt>
      <trkpt lat="41.55594" lon="-77.37829"><ele>266.1</ele></trkpt>
      <trkpt lat="41.55582" lon="-77.3784"><ele>266.9</ele></trkpt>
      <trkpt lat="41.55568" lon="-77.37851"><ele>267.4</ele></trkpt>
      <trkpt lat="41.55557" lon="-77.37872"><ele>267.4</ele></trkpt>
      <trkpt lat="41.55556" lon="-77.37895"><ele>266.5</ele></trkpt>
      <trkpt lat="41.55563" lon="-77.37917"><ele>265.7</ele></trkpt>
      <trkpt lat="41.55573" lon="-77.37931"><ele>265.6</ele></trkpt>
      <trkpt lat="41.55593" lon="-77.37949"><ele>266.2</ele></trkpt>
      <trkpt lat="41.55603" lon="-77.37979"><ele>265.1</ele></trkpt>
      <trkpt lat="41.55623" lon="-77.38078"><ele>264.4</ele></trkpt>
      <trkpt lat="41.55628" lon="-77.38078"><ele>264.6</ele></trkpt>
      <trkpt lat="41.556282" lon="-77.38078"><ele>264.6</ele></trkpt>
      <trkpt lat="41.55628" lon="-77.38078"><ele>264.6</ele></trkpt>
      <trkpt lat="41.55592" lon="-77.38079"><ele>263.1</ele></trkpt>
      <trkpt lat="41.55535" lon="-77.38093"><ele>261.9</ele></trkpt>
      <trkpt lat="41.5548" lon="-77.38128"><ele>261.9</ele></trkpt>
      <trkpt lat="41.55436" lon="-77.38167"><ele>262.6</ele></trkpt>
      <trkpt lat="41.55393" lon="-77.38207"><ele>263.3</ele></trkpt>
      <trkpt lat="41.5535" lon="-77.38246"><ele>263.9</ele></trkpt>
      <trkpt lat="41.55294" lon="-77.38298"><ele>264.9</ele></trkpt>
      <trkpt lat="41.55238" lon="-77.3835"><ele>266.3</ele></trkpt>
      <trkpt lat="41.55177" lon="-77.3841"><ele>268.5</ele></trkpt>
      <trkpt lat="41.55116" lon="-77.38469"><ele>269.3</ele></trkpt>
      <trkpt lat="41.55046" lon="-77.38536"><ele>268.5</ele></trkpt>
      <trkpt lat="41.54976" lon="-77.38602"><ele>266.9</ele></trkpt>
      <trkpt lat="41.5494" lon="-77.38641"><ele>266.4</ele></trkpt>
      <trkpt lat="41.54907" lon="-77.38682"><ele>265.9</ele></trkpt>
      <trkpt lat="41.54874" lon="-77.38729"><ele>265.6</ele></trkpt>
      <trkpt lat="41.54837" lon="-77.38796"><ele>265.9</ele></trkpt>
      <trkpt lat="41.54799" lon="-77.38863"><ele>271.0</ele></trkpt>
      <trkpt lat="41.54782" lon="-77.38898"><ele>271.7</ele></trkpt>
      <trkpt lat="41.54737" lon="-77.38995"><ele>268.7</ele></trkpt>
      <trkpt lat="41.54692" lon="-77.39092"><ele>267.0</ele></trkpt>
      <trkpt lat="41.54647" lon="-77.39188"><ele>267.6</ele></trkpt>
      <trkpt lat="41.54608" lon="-77.39272"><ele>267.5</ele></trkpt>
      <trkpt lat="41.5457" lon="-77.39355"><ele>266.5</ele></trkpt>
      <trkpt lat="41.54532" lon="-77.39439"><ele>265.7</ele></trkpt>
      <trkpt lat="41.54494" lon="-77.39522"><ele>264.5</ele></trkpt>
      <trkpt lat="41.5447" lon="-77.39574"><ele>264.5</ele></trkpt>
      <trkpt lat="41.54445" lon="-77.39625"><ele>261.8</ele></trkpt>
      <trkpt lat="41.54408" lon="-77.39709"><ele>267.0</ele></trkpt>
      <trkpt lat="41.5437" lon="-77.39793"><ele>267.1</ele></trkpt>
      <trkpt lat="41.5433" lon="-77.39879"><ele>263.5</ele></trkpt>
      <trkpt lat="41.54289" lon="-77.39965"><ele>260.5</ele></trkpt>
      <trkpt lat="41.54249" lon="-77.40051"><ele>260.6</ele></trkpt>
      <trkpt lat="41.54207" lon="-77.40143"><ele>259.8</ele></trkpt>
      <trkpt lat="41.54172" lon="-77.4022"><ele>259.2</ele></trkpt>
      <trkpt lat="41.54136" lon="-77.40297"><ele>258.8</ele></trkpt>
      <trkpt lat="41.54101" lon="-77.40373"><ele>258.8</ele></trkpt>
      <trkpt lat="41.54069" lon="-77.40441"><ele>258.4</ele></trkpt>
      <trkpt lat="41.54038" lon="-77.40508"><ele>258.2</ele></trkpt>
      <trkpt lat="41.54006" lon="-77.40583"><ele>257.6</ele></trkpt>
      <trkpt lat="41.53974" lon="-77.40658"><ele>258.0</ele></trkpt>
      <trkpt lat="41.53948" lon="-77.40722"><ele>257.9</ele></trkpt>
      <trkpt lat="41.53922" lon="-77.40785"><ele>257.7</ele></trkpt>
      <trkpt lat="41.53891" lon="-77.40865"><ele>258.0</ele></trkpt>
      <trkpt lat="41.5386" lon="-77.40946"><ele>258.7</ele></trkpt>
      <trkpt lat="41.53829" lon="-77.41026"><ele>259.3</ele></trkpt>
      <trkpt lat="41.53797" lon="-77.41106"><ele>261.1</ele></trkpt>
      <trkpt lat="41.53756" lon="-77.41211"><ele>258.1</ele></trkpt>
      <trkpt lat="41.53715" lon="-77.41316"><ele>255.4</ele></trkpt>
      <trkpt lat="41.53696" lon="-77.41367"><ele>255.0</ele></trkpt>
      <trkpt lat="41.53663" lon="-77.41468"><ele>254.5</ele></trkpt>
      <trkpt lat="41.53631" lon="-77.41569"><ele>254.3</ele></trkpt>
      <trkpt lat="41.53613" lon="-77.41617"><ele>253.0</ele></trkpt>
      <trkpt lat="41.53603" lon="-77.41661"><ele>254.7</ele></trkpt>
      <trkpt lat="41.53596" lon="-77.41714"><ele>256.7</ele></trkpt>
      <trkpt lat="41.53585" lon="-77.41812"><ele>257.6</ele></trkpt>
      <trkpt lat="41.53577" lon="-77.41913"><ele>257.0</ele></trkpt>
      <trkpt lat="41.5357" lon="-77.42015"><ele>256.5</ele></trkpt>
      <trkpt lat="41.53564" lon="-77.42083"><ele>256.3</ele></trkpt>
      <trkpt lat="41.53558" lon="-77.42151"><ele>255.9</ele></trkpt>
      <trkpt lat="41.53544" lon="-77.42244"><ele>255.1</ele></trkpt>
      <trkpt lat="41.53519" lon="-77.42359"><ele>257.1</ele></trkpt>
      <trkpt lat="41.5349" lon="-77.4245"><ele>256.2</ele></trkpt>
      <trkpt lat="41.53478" lon="-77.42481"><ele>255.5</ele></trkpt>
      <trkpt lat="41.53452" lon="-77.42539"><ele>256.2</ele></trkpt>
      <trkpt lat="41.53421" lon="-77.42591"><ele>254.9</ele></trkpt>
      <trkpt lat="41.53384" lon="-77.42644"><ele>255.3</ele></trkpt>
      <trkpt lat="41.53366" lon="-77.42667"><ele>255.5</ele></trkpt>
      <trkpt lat="41.53289" lon="-77.42726"><ele>258.7</ele></trkpt>
      <trkpt lat="41.53265" lon="-77.42739"><ele>261.4</ele></trkpt>
      <trkpt lat="41.53227" lon="-77.42748"><ele>261.5</ele></trkpt>
      <trkpt lat="41.5319" lon="-77.42752"><ele>262.1</ele></trkpt>
      <trkpt lat="41.53141" lon="-77.42741"><ele>256.3</ele></trkpt>
      <trkpt lat="41.53073" lon="-77.42708"><ele>253.0</ele></trkpt>
      <trkpt lat="41.53005" lon="-77.42675"><ele>255.1</ele></trkpt>
      <trkpt lat="41.52928" lon="-77.42632"><ele>256.4</ele></trkpt>
      <trkpt lat="41.52851" lon="-77.42588"><ele>253.2</ele></trkpt>
      <trkpt lat="41.52777" lon="-77.42556"><ele>253.7</ele></trkpt>
      <trkpt lat="41.52737" lon="-77.42538"><ele>251.9</ele></trkpt>
      <trkpt lat="41.52678" lon="-77.42534"><ele>256.0</ele></trkpt>
      <trkpt lat="41.52618" lon="-77.4253"><ele>255.6</ele></trkpt>
      <trkpt lat="41.52543" lon="-77.4254"><ele>255.9</ele></trkpt>
      <trkpt lat="41.52468" lon="-77.42544"><ele>251.9</ele></trkpt>
      <trkpt lat="41.52398" lon="-77.42589"><ele>253.4</ele></trkpt>
      <trkpt lat="41.52357" lon="-77.42628"><ele>253.8</ele></trkpt>
      <trkpt lat="41.52315" lon="-77.42696"><ele>255.8</ele></trkpt>
      <trkpt lat="41.52274" lon="-77.42764"><ele>255.8</ele></trkpt>
      <trkpt lat="41.52258" lon="-77.42793"><ele>255.5</ele></trkpt>
      <trkpt lat="41.52246" lon="-77.42823"><ele>255.8</ele></trkpt>
      <trkpt lat="41.52239" lon="-77.42844"><ele>256.1</ele></trkpt>
      <trkpt lat="41.52225" lon="-77.42908"><ele>255.3</ele></trkpt>
      <trkpt lat="41.52222" lon="-77.42927"><ele>253.5</ele></trkpt>
      <trkpt lat="41.52219" lon="-77.42949"><ele>252.4</ele></trkpt>
      <trkpt lat="41.52219" lon="-77.42989"><ele>252.0</ele></trkpt>
      <trkpt lat="41.52224" lon="-77.43034"><ele>251.8</ele></trkpt>
      <trkpt lat="41.52233" lon="-77.43078"><ele>251.6</ele></trkpt>
      <trkpt lat="41.52243" lon="-77.43118"><ele>251.2</ele></trkpt>
      <trkpt lat="41.52255" lon="-77.43147"><ele>251.1</ele></trkpt>
      <trkpt lat="41.52277" lon="-77.43188"><ele>250.9</ele></trkpt>
      <trkpt lat="41.52298" lon="-77.43221"><ele>250.9</ele></trkpt>
      <trkpt lat="41.52346" lon="-77.4328"><ele>251.6</ele></trkpt>
      <trkpt lat="41.52375" lon="-77.43315"><ele>251.8</ele></trkpt>
      <trkpt lat="41.52402" lon="-77.43345"><ele>252.2</ele></trkpt>
      <trkpt lat="41.52448" lon="-77.43405"><ele>251.8</ele></trkpt>
      <trkpt lat="41.52484" lon="-77.43447"><ele>251.7</ele></trkpt>
      <trkpt lat="41.52522" lon="-77.43491"><ele>251.6</ele></trkpt>
      <trkpt lat="41.5256" lon="-77.43538"><ele>251.5</ele></trkpt>
      <trkpt lat="41.526" lon="-77.43588"><ele>251.6</ele></trkpt>
      <trkpt lat="41.5264" lon="-77.43637"><ele>251.4</ele></trkpt>
      <trkpt lat="41.52664" lon="-77.43675"><ele>250.9</ele></trkpt>
      <trkpt lat="41.52688" lon="-77.43726"><ele>249.0</ele></trkpt>
      <trkpt lat="41.527" lon="-77.43766"><ele>247.7</ele></trkpt>
      <trkpt lat="41.52703" lon="-77.43817"><ele>248.4</ele></trkpt>
      <trkpt lat="41.52707" lon="-77.43902"><ele>249.8</ele></trkpt>
      <trkpt lat="41.52711" lon="-77.43987"><ele>251.1</ele></trkpt>
      <trkpt lat="41.52712" lon="-77.44023"><ele>251.7</ele></trkpt>
      <trkpt lat="41.52716" lon="-77.44097"><ele>252.3</ele></trkpt>
      <trkpt lat="41.52717" lon="-77.44167"><ele>252.4</ele></trkpt>
      <trkpt lat="41.52722" lon="-77.44257"><ele>250.6</ele></trkpt>
      <trkpt lat="41.52719" lon="-77.44311"><ele>251.0</ele></trkpt>
      <trkpt lat="41.52716" lon="-77.4434"><ele>251.0</ele></trkpt>
      <trkpt lat="41.52703" lon="-77.44406"><ele>251.2</ele></trkpt>
      <trkpt lat="41.52664" lon="-77.44501"><ele>251.1</ele></trkpt>
      <trkpt lat="41.52642" lon="-77.4454"><ele>250.5</ele></trkpt>
      <trkpt lat="41.52629" lon="-77.44556"><ele>250.6</ele></trkpt>
      <trkpt lat="41.52573" lon="-77.44613"><ele>250.9</ele></trkpt>
      <trkpt lat="41.52493" lon="-77.44664"><ele>249.7</ele></trkpt>
      <trkpt lat="41.52474" lon="-77.44669"><ele>249.6</ele></trkpt>
      <trkpt lat="41.52441" lon="-77.44675"><ele>249.8</ele></trkpt>
      <trkpt lat="41.52396" lon="-77.44678"><ele>249.8</ele></trkpt>
      <trkpt lat="41.5237" lon="-77.44677"><ele>249.2</ele></trkpt>
      <trkpt lat="41.52348" lon="-77.44674"><ele>247.0</ele></trkpt>
      <trkpt lat="41.52286" lon="-77.44662"><ele>246.4</ele></trkpt>
      <trkpt lat="41.52201" lon="-77.44652"><ele>245.1</ele></trkpt>
      <trkpt lat="41.52117" lon="-77.44643"><ele>244.4</ele></trkpt>
      <trkpt lat="41.52033" lon="-77.44633"><ele>243.1</ele></trkpt>
      <trkpt lat="41.51948" lon="-77.44623"><ele>240.9</ele></trkpt>
      <trkpt lat="41.51887" lon="-77.44616"><ele>240.1</ele></trkpt>
      <trkpt lat="41.51826" lon="-77.44609"><ele>241.3</ele></trkpt>
      <trkpt lat="41.51791" lon="-77.44609"><ele>241.9</ele></trkpt>
      <trkpt lat="41.51725" lon="-77.44618"><ele>241.0</ele></trkpt>
      <trkpt lat="41.51658" lon="-77.44628"><ele>237.6</ele></trkpt>
      <trkpt lat="41.51592" lon="-77.44637"><ele>237.2</ele></trkpt>
      <trkpt lat="41.51519" lon="-77.44652"><ele>235.9</ele></trkpt>
      <trkpt lat="41.51446" lon="-77.44667"><ele>236.4</ele></trkpt>
      <trkpt lat="41.51392" lon="-77.44681"><ele>235.5</ele></trkpt>
      <trkpt lat="41.51337" lon="-77.4471"><ele>237.8</ele></trkpt>
      <trkpt lat="41.51269" lon="-77.44773"><ele>237.2</ele></trkpt>
      <trkpt lat="41.51201" lon="-77.44837"><ele>239.2</ele></trkpt>
      <trkpt lat="41.51145" lon="-77.44903"><ele>237.9</ele></trkpt>
      <trkpt lat="41.51088" lon="-77.44969"><ele>237.0</ele></trkpt>
      <trkpt lat="41.51024" lon="-77.45038"><ele>237.9</ele></trkpt>
      <trkpt lat="41.5096" lon="-77.45108"><ele>240.7</ele></trkpt>
      <trkpt lat="41.50919" lon="-77.45173"><ele>238.3</ele></trkpt>
      <trkpt lat="41.50878" lon="-77.45237"><ele>238.2</ele></trkpt>
      <trkpt lat="41.50837" lon="-77.45302"><ele>238.5</ele></trkpt>
      <trkpt lat="41.50801" lon="-77.45362"><ele>239.1</ele></trkpt>
      <trkpt lat="41.50766" lon="-77.45422"><ele>240.4</ele></trkpt>
      <trkpt lat="41.5072" lon="-77.45507"><ele>241.4</ele></trkpt>
      <trkpt lat="41.50675" lon="-77.45602"><ele>240.1</ele></trkpt>
      <trkpt lat="41.50631" lon="-77.45697"><ele>238.9</ele></trkpt>
      <trkpt lat="41.50587" lon="-77.45793"><ele>239.7</ele></trkpt>
      <trkpt lat="41.5056" lon="-77.45865"><ele>239.4</ele></trkpt>
      <trkpt lat="41.50532" lon="-77.45937"><ele>238.9</ele></trkpt>
      <trkpt lat="41.50505" lon="-77.46009"><ele>240.7</ele></trkpt>
      <trkpt lat="41.50487" lon="-77.46085"><ele>239.9</ele></trkpt>
      <trkpt lat="41.50472" lon="-77.46182"><ele>239.7</ele></trkpt>
      <trkpt lat="41.50456" lon="-77.4628"><ele>241.3</ele></trkpt>
      <trkpt lat="41.50453" lon="-77.46387"><ele>240.0</ele></trkpt>
      <trkpt lat="41.50449" lon="-77.46494"><ele>241.0</ele></trkpt>
      <trkpt lat="41.50447" lon="-77.46581"><ele>241.5</ele></trkpt>
      <trkpt lat="41.50445" lon="-77.46669"><ele>239.2</ele></trkpt>
      <trkpt lat="41.50441" lon="-77.46769"><ele>237.6</ele></trkpt>
      <trkpt lat="41.50434" lon="-77.46865"><ele>236.3</ele></trkpt>
      <trkpt lat="41.50421" lon="-77.46937"><ele>236.2</ele></trkpt>
      <trkpt lat="41.50405" lon="-77.4701"><ele>236.2</ele></trkpt>
      <trkpt lat="41.50372" lon="-77.47098"><ele>237.4</ele></trkpt>
      <trkpt lat="41.50338" lon="-77.47186"><ele>238.0</ele></trkpt>
      <trkpt lat="41.50304" lon="-77.47269"><ele>237.6</ele></trkpt>
      <trkpt lat="41.5026" lon="-77.47354"><ele>237.3</ele></trkpt>
      <trkpt lat="41.50237" lon="-77.47381"><ele>237.4</ele></trkpt>
      <trkpt lat="41.50203" lon="-77.47411"><ele>237.8</ele></trkpt>
      <trkpt lat="41.5015" lon="-77.47457"><ele>238.3</ele></trkpt>
      <trkpt lat="41.50098" lon="-77.47502"><ele>237.7</ele></trkpt>
      <trkpt lat="41.50054" lon="-77.47531"><ele>237.6</ele></trkpt>
      <trkpt lat="41.50011" lon="-77.47559"><ele>236.8</ele></trkpt>
      <trkpt lat="41.49983" lon="-77.47575"><ele>236.0</ele></trkpt>
      <trkpt lat="41.49922" lon="-77.47602"><ele>235.8</ele></trkpt>
      <trkpt lat="41.49863" lon="-77.47622"><ele>236.1</ele></trkpt>
      <trkpt lat="41.49805" lon="-77.47636"><ele>236.1</ele></trkpt>
      <trkpt lat="41.49756" lon="-77.47645"><ele>236.4</ele></trkpt>
      <trkpt lat="41.49707" lon="-77.47654"><ele>236.5</ele></trkpt>
      <trkpt lat="41.49628" lon="-77.47671"><ele>236.3</ele></trkpt>
      <trkpt lat="41.49549" lon="-77.47687"><ele>236.6</ele></trkpt>
      <trkpt lat="41.49501" lon="-77.47702"><ele>236.6</ele></trkpt>
      <trkpt lat="41.49454" lon="-77.47718"><ele>236.3</ele></trkpt>
      <trkpt lat="41.49376" lon="-77.47734"><ele>236.2</ele></trkpt>
      <trkpt lat="41.49298" lon="-77.4775"><ele>236.7</ele></trkpt>
      <trkpt lat="41.4924" lon="-77.47778"><ele>235.5</ele></trkpt>
      <trkpt lat="41.49182" lon="-77.47806"><ele>234.8</ele></trkpt>
      <trkpt lat="41.49112" lon="-77.47855"><ele>234.1</ele></trkpt>
      <trkpt lat="41.49058" lon="-77.47905"><ele>232.6</ele></trkpt>
      <trkpt lat="41.49004" lon="-77.47956"><ele>232.5</ele></trkpt>
      <trkpt lat="41.4895" lon="-77.48006"><ele>232.7</ele></trkpt>
      <trkpt lat="41.48915" lon="-77.4804"><ele>232.3</ele></trkpt>
      <trkpt lat="41.48859" lon="-77.48098"><ele>230.9</ele></trkpt>
      <trkpt lat="41.48823" lon="-77.48147"><ele>232.3</ele></trkpt>
      <trkpt lat="41.488" lon="-77.48194"><ele>232.8</ele></trkpt>
      <trkpt lat="41.48782" lon="-77.48252"><ele>232.0</ele></trkpt>
      <trkpt lat="41.48766" lon="-77.48312"><ele>231.6</ele></trkpt>
      <trkpt lat="41.4875" lon="-77.48371"><ele>231.6</ele></trkpt>
      <trkpt lat="41.48736" lon="-77.48487"><ele>230.9</ele></trkpt>
      <trkpt lat="41.48722" lon="-77.48602"><ele>231.7</ele></trkpt>
      <trkpt lat="41.48714" lon="-77.48701"><ele>231.4</ele></trkpt>
      <trkpt lat="41.487" lon="-77.48808"><ele>231.7</ele></trkpt>
      <trkpt lat="41.48689" lon="-77.48873"><ele>231.9</ele></trkpt>
      <trkpt lat="41.48674" lon="-77.4895"><ele>231.7</ele></trkpt>
      <trkpt lat="41.48658" lon="-77.49028"><ele>231.3</ele></trkpt>
      <trkpt lat="41.48643" lon="-77.49105"><ele>231.7</ele></trkpt>
      <trkpt lat="41.4863" lon="-77.49176"><ele>231.7</ele></trkpt>
      <trkpt lat="41.48612" lon="-77.49254"><ele>232.1</ele></trkpt>
      <trkpt lat="41.48582" lon="-77.49365"><ele>233.0</ele></trkpt>
      <trkpt lat="41.48553" lon="-77.49477"><ele>231.9</ele></trkpt>
      <trkpt lat="41.4852" lon="-77.4956"><ele>232.1</ele></trkpt>
      <trkpt lat="41.48487" lon="-77.49642"><ele>233.8</ele></trkpt>
      <trkpt lat="41.48462" lon="-77.4969"><ele>232.5</ele></trkpt>
      <trkpt lat="41.48419" lon="-77.49752"><ele>231.1</ele></trkpt>
      <trkpt lat="41.48381" lon="-77.49802"><ele>230.9</ele></trkpt>
      <trkpt lat="41.48343" lon="-77.49851"><ele>229.8</ele></trkpt>
      <trkpt lat="41.48287" lon="-77.49904"><ele>228.0</ele></trkpt>
      <trkpt lat="41.48232" lon="-77.49957"><ele>230.0</ele></trkpt>
      <trkpt lat="41.4818" lon="-77.49998"><ele>231.2</ele></trkpt>
      <trkpt lat="41.48129" lon="-77.5004"><ele>230.9</ele></trkpt>
      <trkpt lat="41.48089" lon="-77.50071"><ele>231.1</ele></trkpt>
      <trkpt lat="41.48031" lon="-77.50112"><ele>230.6</ele></trkpt>
      <trkpt lat="41.47985" lon="-77.50142"><ele>230.3</ele></trkpt>
      <trkpt lat="41.47929" lon="-77.5017"><ele>230.1</ele></trkpt>
      <trkpt lat="41.47848" lon="-77.50203"><ele>230.1</ele></trkpt>
      <trkpt lat="41.47776" lon="-77.50224"><ele>230.0</ele></trkpt>
      <trkpt lat="41.47714" lon="-77.50237"><ele>229.9</ele></trkpt>
      <trkpt lat="41.47661" lon="-77.50245"><ele>229.3</ele></trkpt>
      <trkpt lat="41.47576" lon="-77.50248"><ele>228.6</ele></trkpt>
      <trkpt lat="41.47521" lon="-77.50243"><ele>228.7</ele></trkpt>
      <trkpt lat="41.47467" lon="-77.50239"><ele>228.8</ele></trkpt>
      <trkpt lat="41.47416" lon="-77.50228"><ele>228.9</ele></trkpt>
      <trkpt lat="41.47364" lon="-77.50218"><ele>229.0</ele></trkpt>
      <trkpt lat="41.473" lon="-77.50207"><ele>228.8</ele></trkpt>
      <trkpt lat="41.47236" lon="-77.50197"><ele>228.4</ele></trkpt>
      <trkpt lat="41.47173" lon="-77.50187"><ele>227.7</ele></trkpt>
      <trkpt lat="41.47124" lon="-77.50175"><ele>227.6</ele></trkpt>
      <trkpt lat="41.47093" lon="-77.50165"><ele>227.8</ele></trkpt>
      <trkpt lat="41.4704" lon="-77.50156"><ele>227.8</ele></trkpt>
      <trkpt lat="41.46986" lon="-77.50147"><ele>228.3</ele></trkpt>
      <trkpt lat="41.46898" lon="-77.50137"><ele>226.2</ele></trkpt>
      <trkpt lat="41.46825" lon="-77.50123"><ele>228.1</ele></trkpt>
      <trkpt lat="41.46766" lon="-77.50145"><ele>225.2</ele></trkpt>
      <trkpt lat="41.46706" lon="-77.50168"><ele>224.9</ele></trkpt>
      <trkpt lat="41.46647" lon="-77.5019"><ele>226.6</ele></trkpt>
      <trkpt lat="41.46591" lon="-77.50235"><ele>225.4</ele></trkpt>
      <trkpt lat="41.46536" lon="-77.50279"><ele>225.6</ele></trkpt>
      <trkpt lat="41.46466" lon="-77.50333"><ele>226.1</ele></trkpt>
      <trkpt lat="41.46397" lon="-77.50387"><ele>226.7</ele></trkpt>
      <trkpt lat="41.46322" lon="-77.50452"><ele>225.5</ele></trkpt>
      <trkpt lat="41.46246" lon="-77.50517"><ele>225.0</ele></trkpt>
      <trkpt lat="41.46195" lon="-77.50556"><ele>228.8</ele></trkpt>
      <trkpt lat="41.46143" lon="-77.50596"><ele>228.0</ele></trkpt>
      <trkpt lat="41.46096" lon="-77.50626"><ele>222.5</ele></trkpt>
      <trkpt lat="41.46049" lon="-77.50656"><ele>223.1</ele></trkpt>
      <trkpt lat="41.46009" lon="-77.50707"><ele>222.9</ele></trkpt>
      <trkpt lat="41.4597" lon="-77.50759"><ele>222.4</ele></trkpt>
      <trkpt lat="41.45931" lon="-77.50806"><ele>223.1</ele></trkpt>
      <trkpt lat="41.45893" lon="-77.50854"><ele>223.9</ele></trkpt>
      <trkpt lat="41.45832" lon="-77.50932"><ele>224.4</ele></trkpt>
      <trkpt lat="41.45797" lon="-77.50974"><ele>224.7</ele></trkpt>
      <trkpt lat="41.45762" lon="-77.51016"><ele>224.6</ele></trkpt>
      <trkpt lat="41.45695" lon="-77.51091"><ele>224.8</ele></trkpt>
      <trkpt lat="41.45628" lon="-77.51167"><ele>224.2</ele></trkpt>
      <trkpt lat="41.45615" lon="-77.51186"><ele>224.0</ele></trkpt>
      <trkpt lat="41.45576" lon="-77.51219"><ele>223.8</ele></trkpt>
      <trkpt lat="41.45523" lon="-77.51256"><ele>224.6</ele></trkpt>
      <trkpt lat="41.45472" lon="-77.51311"><ele>223.4</ele></trkpt>
      <trkpt lat="41.45422" lon="-77.51359"><ele>220.4</ele></trkpt>
      <trkpt lat="41.45372" lon="-77.51407"><ele>218.6</ele></trkpt>
      <trkpt lat="41.45321" lon="-77.51455"><ele>219.3</ele></trkpt>
      <trkpt lat="41.45247" lon="-77.51507"><ele>219.5</ele></trkpt>
      <trkpt lat="41.45172" lon="-77.51559"><ele>221.7</ele></trkpt>
      <trkpt lat="41.45098" lon="-77.51611"><ele>221.1</ele></trkpt>
      <trkpt lat="41.45021" lon="-77.51657"><ele>221.5</ele></trkpt>
      <trkpt lat="41.44944" lon="-77.51704"><ele>220.4</ele></trkpt>
      <trkpt lat="41.44889" lon="-77.51723"><ele>222.6</ele></trkpt>
      <trkpt lat="41.44835" lon="-77.51742"><ele>223.2</ele></trkpt>
      <trkpt lat="41.44781" lon="-77.51753"><ele>223.7</ele></trkpt>
      <trkpt lat="41.44735" lon="-77.51762"><ele>223.7</ele></trkpt>
      <trkpt lat="41.44678" lon="-77.51762"><ele>223.9</ele></trkpt>
      <trkpt lat="41.4462" lon="-77.51762"><ele>223.8</ele></trkpt>
      <trkpt lat="41.44574" lon="-77.51756"><ele>223.9</ele></trkpt>
      <trkpt lat="41.44547" lon="-77.51751"><ele>223.9</ele></trkpt>
      <trkpt lat="41.44496" lon="-77.51738"><ele>224.1</ele></trkpt>
      <trkpt lat="41.44456" lon="-77.51724"><ele>224.2</ele></trkpt>
      <trkpt lat="41.44413" lon="-77.51707"><ele>224.2</ele></trkpt>
      <trkpt lat="41.44373" lon="-77.51687"><ele>224.2</ele></trkpt>
      <trkpt lat="41.44316" lon="-77.51653"><ele>224.3</ele></trkpt>
      <trkpt lat="41.44262" lon="-77.51612"><ele>224.3</ele></trkpt>
      <trkpt lat="41.44223" lon="-77.51578"><ele>223.9</ele></trkpt>
      <trkpt lat="41.44154" lon="-77.51507"><ele>222.9</ele></trkpt>
      <trkpt lat="41.44131" lon="-77.51481"><ele>222.9</ele></trkpt>
      <trkpt lat="41.44095" lon="-77.51428"><ele>223.4</ele></trkpt>
      <trkpt lat="41.44059" lon="-77.51375"><ele>223.1</ele></trkpt>
      <trkpt lat="41.44012" lon="-77.51295"><ele>222.6</ele></trkpt>
      <trkpt lat="41.43977" lon="-77.51226"><ele>222.5</ele></trkpt>
      <trkpt lat="41.43948" lon="-77.51164"><ele>222.6</ele></trkpt>
      <trkpt lat="41.43918" lon="-77.51101"><ele>222.8</ele></trkpt>
      <trkpt lat="41.439" lon="-77.51052"><ele>221.9</ele></trkpt>
      <trkpt lat="41.43894" lon="-77.51036"><ele>221.7</ele></trkpt>
      <trkpt lat="41.43882" lon="-77.51005"><ele>221.2</ele></trkpt>
      <trkpt lat="41.43869" lon="-77.50969"><ele>224.0</ele></trkpt>
      <trkpt lat="41.43846" lon="-77.50901"><ele>224.8</ele></trkpt>
      <trkpt lat="41.43825" lon="-77.50833"><ele>225.5</ele></trkpt>
      <trkpt lat="41.43805" lon="-77.50766"><ele>226.5</ele></trkpt>
      <trkpt lat="41.43782" lon="-77.50676"><ele>227.0</ele></trkpt>
      <trkpt lat="41.4376" lon="-77.50585"><ele>225.3</ele></trkpt>
      <trkpt lat="41.43738" lon="-77.50495"><ele>221.8</ele></trkpt>
      <trkpt lat="41.43715" lon="-77.50405"><ele>220.0</ele></trkpt>
      <trkpt lat="41.4369" lon="-77.50298"><ele>219.5</ele></trkpt>
      <trkpt lat="41.43665" lon="-77.50191"><ele>219.7</ele></trkpt>
      <trkpt lat="41.4364" lon="-77.50084"><ele>219.3</ele></trkpt>
      <trkpt lat="41.43609" lon="-77.50003"><ele>218.5</ele></trkpt>
      <trkpt lat="41.43578" lon="-77.49921"><ele>218.2</ele></trkpt>
      <trkpt lat="41.43546" lon="-77.49847"><ele>217.1</ele></trkpt>
      <trkpt lat="41.43513" lon="-77.49792"><ele>218.5</ele></trkpt>
      <trkpt lat="41.43454" lon="-77.49709"><ele>218.2</ele></trkpt>
      <trkpt lat="41.43395" lon="-77.49626"><ele>218.0</ele></trkpt>
      <trkpt lat="41.43356" lon="-77.49584"><ele>217.6</ele></trkpt>
      <trkpt lat="41.43316" lon="-77.49544"><ele>215.1</ele></trkpt>
      <trkpt lat="41.43283" lon="-77.49515"><ele>213.8</ele></trkpt>
      <trkpt lat="41.43258" lon="-77.49491"><ele>217.8</ele></trkpt>
      <trkpt lat="41.43236" lon="-77.49477"><ele>220.3</ele></trkpt>
      <trkpt lat="41.43209" lon="-77.49464"><ele>218.7</ele></trkpt>
      <trkpt lat="41.4313" lon="-77.49447"><ele>216.5</ele></trkpt>
      <trkpt lat="41.43059" lon="-77.49442"><ele>215.3</ele></trkpt>
      <trkpt lat="41.42974" lon="-77.4943"><ele>214.4</ele></trkpt>
      <trkpt lat="41.42917" lon="-77.49415"><ele>217.0</ele></trkpt>
      <trkpt lat="41.42859" lon="-77.494"><ele>218.2</ele></trkpt>
      <trkpt lat="41.42795" lon="-77.49371"><ele>221.6</ele></trkpt>
      <trkpt lat="41.42741" lon="-77.49351"><ele>220.5</ele></trkpt>
      <trkpt lat="41.42687" lon="-77.4933"><ele>218.3</ele></trkpt>
      <trkpt lat="41.42609" lon="-77.49291"><ele>216.1</ele></trkpt>
      <trkpt lat="41.42531" lon="-77.49251"><ele>214.7</ele></trkpt>
      <trkpt lat="41.42475" lon="-77.49214"><ele>214.7</ele></trkpt>
      <trkpt lat="41.42418" lon="-77.49177"><ele>215.5</ele></trkpt>
      <trkpt lat="41.42384" lon="-77.49152"><ele>216.1</ele></trkpt>
      <trkpt lat="41.42313" lon="-77.49093"><ele>215.9</ele></trkpt>
      <trkpt lat="41.42242" lon="-77.49034"><ele>215.7</ele></trkpt>
      <trkpt lat="41.42172" lon="-77.48968"><ele>215.4</ele></trkpt>
      <trkpt lat="41.42127" lon="-77.48915"><ele>215.6</ele></trkpt>
      <trkpt lat="41.42082" lon="-77.48863"><ele>216.0</ele></trkpt>
      <trkpt lat="41.42053" lon="-77.48827"><ele>213.4</ele></trkpt>
      <trkpt lat="41.42001" lon="-77.48761"><ele>216.7</ele></trkpt>
      <trkpt lat="41.4198" lon="-77.48729"><ele>216.6</ele></trkpt>
      <trkpt lat="41.41959" lon="-77.48701"><ele>216.4</ele></trkpt>
      <trkpt lat="41.41905" lon="-77.48613"><ele>216.7</ele></trkpt>
      <trkpt lat="41.4187" lon="-77.48553"><ele>216.9</ele></trkpt>
      <trkpt lat="41.41842" lon="-77.48502"><ele>217.0</ele></trkpt>
      <trkpt lat="41.41807" lon="-77.48428"><ele>217.2</ele></trkpt>
      <trkpt lat="41.41772" lon="-77.48354"><ele>217.3</ele></trkpt>
      <trkpt lat="41.41743" lon="-77.48285"><ele>216.9</ele></trkpt>
      <trkpt lat="41.41714" lon="-77.48216"><ele>216.4</ele></trkpt>
      <trkpt lat="41.41678" lon="-77.4813"><ele>218.4</ele></trkpt>
      <trkpt lat="41.41643" lon="-77.48045"><ele>217.5</ele></trkpt>
      <trkpt lat="41.41608" lon="-77.47959"><ele>217.3</ele></trkpt>
      <trkpt lat="41.41573" lon="-77.47874"><ele>217.1</ele></trkpt>
      <trkpt lat="41.41536" lon="-77.47787"><ele>216.0</ele></trkpt>
      <trkpt lat="41.41502" lon="-77.47706"><ele>213.7</ele></trkpt>
      <trkpt lat="41.41469" lon="-77.47624"><ele>212.8</ele></trkpt>
      <trkpt lat="41.41436" lon="-77.47543"><ele>212.7</ele></trkpt>
      <trkpt lat="41.41402" lon="-77.47462"><ele>212.5</ele></trkpt>
      <trkpt lat="41.41361" lon="-77.47372"><ele>214.0</ele></trkpt>
      <trkpt lat="41.41338" lon="-77.47324"><ele>212.4</ele></trkpt>
      <trkpt lat="41.41298" lon="-77.47253"><ele>212.1</ele></trkpt>
      <trkpt lat="41.41262" lon="-77.47206"><ele>211.9</ele></trkpt>
      <trkpt lat="41.41227" lon="-77.47158"><ele>212.0</ele></trkpt>
      <trkpt lat="41.41176" lon="-77.47101"><ele>211.8</ele></trkpt>
      <trkpt lat="41.41144" lon="-77.47071"><ele>211.6</ele></trkpt>
      <trkpt lat="41.41085" lon="-77.47018"><ele>210.0</ele></trkpt>
      <trkpt lat="41.41026" lon="-77.46966"><ele>209.5</ele></trkpt>
      <trkpt lat="41.40967" lon="-77.46914"><ele>209.6</ele></trkpt>
      <trkpt lat="41.40908" lon="-77.46863"><ele>210.3</ele></trkpt>
      <trkpt lat="41.40841" lon="-77.46806"><ele>211.4</ele></trkpt>
      <trkpt lat="41.40767" lon="-77.46749"><ele>211.7</ele></trkpt>
      <trkpt lat="41.40692" lon="-77.46692"><ele>211.8</ele></trkpt>
      <trkpt lat="41.40631" lon="-77.46646"><ele>212.3</ele></trkpt>
      <trkpt lat="41.40569" lon="-77.466"><ele>212.7</ele></trkpt>
      <trkpt lat="41.40529" lon="-77.46567"><ele>212.5</ele></trkpt>
      <trkpt lat="41.40489" lon="-77.46533"><ele>212.2</ele></trkpt>
      <trkpt lat="41.40471" lon="-77.46517"><ele>212.2</ele></trkpt>
      <trkpt lat="41.40454" lon="-77.46501"><ele>212.3</ele></trkpt>
      <trkpt lat="41.40431" lon="-77.46477"><ele>212.5</ele></trkpt>
      <trkpt lat="41.40392" lon="-77.46433"><ele>212.5</ele></trkpt>
      <trkpt lat="41.40356" lon="-77.46388"><ele>212.5</ele></trkpt>
      <trkpt lat="41.40316" lon="-77.46327"><ele>212.4</ele></trkpt>
      <trkpt lat="41.40287" lon="-77.46279"><ele>212.4</ele></trkpt>
      <trkpt lat="41.40256" lon="-77.46217"><ele>212.5</ele></trkpt>
      <trkpt lat="41.40225" lon="-77.46156"><ele>212.5</ele></trkpt>
      <trkpt lat="41.4018" lon="-77.4606"><ele>212.8</ele></trkpt>
      <trkpt lat="41.40134" lon="-77.45965"><ele>211.6</ele></trkpt>
      <trkpt lat="41.40088" lon="-77.4587"><ele>210.7</ele></trkpt>
      <trkpt lat="41.40076" lon="-77.45843"><ele>210.6</ele></trkpt>
      <trkpt lat="41.40039" lon="-77.45773"><ele>210.4</ele></trkpt>
      <trkpt lat="41.40013" lon="-77.45734"><ele>210.4</ele></trkpt>
      <trkpt lat="41.39987" lon="-77.45707"><ele>210.0</ele></trkpt>
      <trkpt lat="41.39963" lon="-77.45691"><ele>209.4</ele></trkpt>
      <trkpt lat="41.3992" lon="-77.45664"><ele>209.1</ele></trkpt>
      <trkpt lat="41.39879" lon="-77.4565"><ele>211.0</ele></trkpt>
      <trkpt lat="41.39841" lon="-77.45645"><ele>211.7</ele></trkpt>
      <trkpt lat="41.39794" lon="-77.45646"><ele>212.5</ele></trkpt>
      <trkpt lat="41.39765" lon="-77.45651"><ele>212.4</ele></trkpt>
      <trkpt lat="41.39709" lon="-77.45669"><ele>212.6</ele></trkpt>
      <trkpt lat="41.39651" lon="-77.45699"><ele>210.9</ele></trkpt>
      <trkpt lat="41.39604" lon="-77.45731"><ele>209.3</ele></trkpt>
      <trkpt lat="41.39532" lon="-77.45775"><ele>208.3</ele></trkpt>
      <trkpt lat="41.39475" lon="-77.45794"><ele>208.6</ele></trkpt>
      <trkpt lat="41.39408" lon="-77.45807"><ele>209.5</ele></trkpt>
      <trkpt lat="41.39366" lon="-77.45811"><ele>209.1</ele></trkpt>
      <trkpt lat="41.39318" lon="-77.45815"><ele>208.8</ele></trkpt>
      <trkpt lat="41.3927" lon="-77.45819"><ele>208.4</ele></trkpt>
      <trkpt lat="41.39215" lon="-77.4582"><ele>207.9</ele></trkpt>
      <trkpt lat="41.3917" lon="-77.45819"><ele>207.7</ele></trkpt>
      <trkpt lat="41.39107" lon="-77.45808"><ele>207.9</ele></trkpt>
      <trkpt lat="41.39066" lon="-77.45796"><ele>212.6</ele></trkpt>
      <trkpt lat="41.39011" lon="-77.45773"><ele>206.4</ele></trkpt>
      <trkpt lat="41.38983" lon="-77.45758"><ele>206.5</ele></trkpt>
      <trkpt lat="41.3891" lon="-77.45706"><ele>206.5</ele></trkpt>
      <trkpt lat="41.38866" lon="-77.45667"><ele>206.3</ele></trkpt>
      <trkpt lat="41.38824" lon="-77.4562"><ele>206.1</ele></trkpt>
      <trkpt lat="41.38783" lon="-77.45567"><ele>206.0</ele></trkpt>
      <trkpt lat="41.38752" lon="-77.45515"><ele>206.0</ele></trkpt>
      <trkpt lat="41.38715" lon="-77.45445"><ele>206.0</ele></trkpt>
      <trkpt lat="41.38678" lon="-77.4534"><ele>206.3</ele></trkpt>
      <trkpt lat="41.38647" lon="-77.45239"><ele>206.3</ele></trkpt>
      <trkpt lat="41.38617" lon="-77.45139"><ele>206.1</ele></trkpt>
      <trkpt lat="41.38586" lon="-77.45039"><ele>205.6</ele></trkpt>
      <trkpt lat="41.38556" lon="-77.44938"><ele>205.1</ele></trkpt>
      <trkpt lat="41.38525" lon="-77.44838"><ele>204.6</ele></trkpt>
      <trkpt lat="41.38495" lon="-77.44737"><ele>204.2</ele></trkpt>
      <trkpt lat="41.38464" lon="-77.44637"><ele>202.8</ele></trkpt>
      <trkpt lat="41.38434" lon="-77.44537"><ele>201.7</ele></trkpt>
      <trkpt lat="41.38403" lon="-77.44436"><ele>201.2</ele></trkpt>
      <trkpt lat="41.38384" lon="-77.44381"><ele>201.3</ele></trkpt>
      <trkpt lat="41.38362" lon="-77.44329"><ele>202.2</ele></trkpt>
      <trkpt lat="41.38331" lon="-77.44275"><ele>204.6</ele></trkpt>
      <trkpt lat="41.38295" lon="-77.44226"><ele>206.4</ele></trkpt>
      <trkpt lat="41.3826" lon="-77.44188"><ele>207.3</ele></trkpt>
      <trkpt lat="41.38223" lon="-77.4416"><ele>206.0</ele></trkpt>
      <trkpt lat="41.38159" lon="-77.44106"><ele>203.4</ele></trkpt>
      <trkpt lat="41.38106" lon="-77.44063"><ele>204.0</ele></trkpt>
      <trkpt lat="41.38052" lon="-77.4402"><ele>205.2</ele></trkpt>
      <trkpt lat="41.37998" lon="-77.43977"><ele>205.8</ele></trkpt>
      <trkpt lat="41.37942" lon="-77.43927"><ele>206.2</ele></trkpt>
      <trkpt lat="41.37886" lon="-77.43867"><ele>206.2</ele></trkpt>
      <trkpt lat="41.37854" lon="-77.43823"><ele>205.9</ele></trkpt>
      <trkpt lat="41.37839" lon="-77.43802"><ele>205.6</ele></trkpt>
      <trkpt lat="41.37807" lon="-77.43745"><ele>205.4</ele></trkpt>
      <trkpt lat="41.37778" lon="-77.43677"><ele>204.1</ele></trkpt>
      <trkpt lat="41.37745" lon="-77.43577"><ele>204.3</ele></trkpt>
      <trkpt lat="41.37724" lon="-77.43504"><ele>205.6</ele></trkpt>
      <trkpt lat="41.377" lon="-77.43422"><ele>204.2</ele></trkpt>
      <trkpt lat="41.37676" lon="-77.43341"><ele>203.4</ele></trkpt>
      <trkpt lat="41.37652" lon="-77.4326"><ele>205.9</ele></trkpt>
      <trkpt lat="41.37621" lon="-77.43157"><ele>205.1</ele></trkpt>
      <trkpt lat="41.37599" lon="-77.43085"><ele>206.0</ele></trkpt>
      <trkpt lat="41.37573" lon="-77.42995"><ele>205.1</ele></trkpt>
      <trkpt lat="41.37541" lon="-77.42886"><ele>205.0</ele></trkpt>
      <trkpt lat="41.37508" lon="-77.42779"><ele>206.6</ele></trkpt>
      <trkpt lat="41.37477" lon="-77.42681"><ele>206.0</ele></trkpt>
      <trkpt lat="41.37451" lon="-77.4259"><ele>206.4</ele></trkpt>
      <trkpt lat="41.37442" lon="-77.42562"><ele>206.6</ele></trkpt>
      <trkpt lat="41.37414" lon="-77.42495"><ele>207.2</ele></trkpt>
      <trkpt lat="41.37379" lon="-77.42424"><ele>207.4</ele></trkpt>
      <trkpt lat="41.37348" lon="-77.42363"><ele>209.1</ele></trkpt>
      <trkpt lat="41.37327" lon="-77.42319"><ele>210.3</ele></trkpt>
      <trkpt lat="41.37275" lon="-77.42246"><ele>219.2</ele></trkpt>
      <trkpt lat="41.37224" lon="-77.42224"><ele>209.6</ele></trkpt>
      <trkpt lat="41.37173" lon="-77.42202"><ele>211.6</ele></trkpt>
      <trkpt lat="41.37137" lon="-77.42188"><ele>214.2</ele></trkpt>
      <trkpt lat="41.37089" lon="-77.42181"><ele>211.4</ele></trkpt>
      <trkpt lat="41.37041" lon="-77.42174"><ele>209.4</ele></trkpt>
      <trkpt lat="41.36965" lon="-77.4216"><ele>209.6</ele></trkpt>
      <trkpt lat="41.36889" lon="-77.42146"><ele>213.3</ele></trkpt>
      <trkpt lat="41.36813" lon="-77.42131"><ele>215.2</ele></trkpt>
      <trkpt lat="41.36737" lon="-77.42117"><ele>212.1</ele></trkpt>
      <trkpt lat="41.36682" lon="-77.42091"><ele>214.2</ele></trkpt>
      <trkpt lat="41.36626" lon="-77.42065"><ele>213.0</ele></trkpt>
      <trkpt lat="41.36581" lon="-77.42031"><ele>208.1</ele></trkpt>
      <trkpt lat="41.36536" lon="-77.41997"><ele>206.4</ele></trkpt>
      <trkpt lat="41.36492" lon="-77.41952"><ele>206.4</ele></trkpt>
      <trkpt lat="41.36441" lon="-77.41895"><ele>206.4</ele></trkpt>
      <trkpt lat="41.36405" lon="-77.41853"><ele>206.5</ele></trkpt>
      <trkpt lat="41.36368" lon="-77.41811"><ele>206.3</ele></trkpt>
      <trkpt lat="41.36332" lon="-77.41754"><ele>206.5</ele></trkpt>
      <trkpt lat="41.36296" lon="-77.41697"><ele>206.5</ele></trkpt>
      <trkpt lat="41.36245" lon="-77.4161"><ele>206.4</ele></trkpt>
      <trkpt lat="41.36217" lon="-77.4155"><ele>205.8</ele></trkpt>
      <trkpt lat="41.36184" lon="-77.41474"><ele>204.5</ele></trkpt>
      <trkpt lat="41.36156" lon="-77.41387"><ele>205.2</ele></trkpt>
      <trkpt lat="41.36129" lon="-77.41301"><ele>205.1</ele></trkpt>
      <trkpt lat="41.36092" lon="-77.4121"><ele>202.7</ele></trkpt>
      <trkpt lat="41.36055" lon="-77.4112"><ele>200.5</ele></trkpt>
      <trkpt lat="41.36023" lon="-77.41036"><ele>204.5</ele></trkpt>
      <trkpt lat="41.35992" lon="-77.40952"><ele>201.7</ele></trkpt>
      <trkpt lat="41.35961" lon="-77.40868"><ele>201.0</ele></trkpt>
      <trkpt lat="41.3593" lon="-77.40784"><ele>201.0</ele></trkpt>
      <trkpt lat="41.35905" lon="-77.40717"><ele>198.8</ele></trkpt>
      <trkpt lat="41.35877" lon="-77.40658"><ele>196.9</ele></trkpt>
      <trkpt lat="41.3585" lon="-77.40599"><ele>198.5</ele></trkpt>
      <trkpt lat="41.35804" lon="-77.40531"><ele>199.6</ele></trkpt>
      <trkpt lat="41.35788" lon="-77.40508"><ele>200.0</ele></trkpt>
      <trkpt lat="41.35771" lon="-77.40488"><ele>199.6</ele></trkpt>
      <trkpt lat="41.35735" lon="-77.40456"><ele>198.9</ele></trkpt>
      <trkpt lat="41.3567" lon="-77.40415"><ele>198.2</ele></trkpt>
      <trkpt lat="41.35641" lon="-77.40395"><ele>198.0</ele></trkpt>
      <trkpt lat="41.35595" lon="-77.40367"><ele>199.0</ele></trkpt>
      <trkpt lat="41.35549" lon="-77.40339"><ele>199.5</ele></trkpt>
      <trkpt lat="41.35473" lon="-77.40289"><ele>202.7</ele></trkpt>
      <trkpt lat="41.35429" lon="-77.4027"><ele>204.8</ele></trkpt>
      <trkpt lat="41.35385" lon="-77.40251"><ele>201.3</ele></trkpt>
      <trkpt lat="41.35309" lon="-77.40232"><ele>191.9</ele></trkpt>
      <trkpt lat="41.35248" lon="-77.40211"><ele>196.2</ele></trkpt>
      <trkpt lat="41.35167" lon="-77.40186"><ele>196.4</ele></trkpt>
      <trkpt lat="41.35087" lon="-77.40161"><ele>196.9</ele></trkpt>
      <trkpt lat="41.35005" lon="-77.40124"><ele>197.0</ele></trkpt>
      <trkpt lat="41.3494" lon="-77.40088"><ele>197.3</ele></trkpt>
      <trkpt lat="41.3488" lon="-77.40051"><ele>197.6</ele></trkpt>
      <trkpt lat="41.34821" lon="-77.40013"><ele>199.4</ele></trkpt>
      <trkpt lat="41.34768" lon="-77.39977"><ele>199.5</ele></trkpt>
      <trkpt lat="41.34715" lon="-77.39941"><ele>199.3</ele></trkpt>
      <trkpt lat="41.34649" lon="-77.39889"><ele>199.5</ele></trkpt>
      <trkpt lat="41.34602" lon="-77.39849"><ele>199.9</ele></trkpt>
      <trkpt lat="41.34552" lon="-77.39788"><ele>200.3</ele></trkpt>
      <trkpt lat="41.34498" lon="-77.39706"><ele>200.3</ele></trkpt>
      <trkpt lat="41.3447" lon="-77.39656"><ele>200.4</ele></trkpt>
      <trkpt lat="41.34427" lon="-77.39573"><ele>200.3</ele></trkpt>
      <trkpt lat="41.344" lon="-77.39522"><ele>200.3</ele></trkpt>
      <trkpt lat="41.34374" lon="-77.39484"><ele>200.0</ele></trkpt>
      <trkpt lat="41.34363" lon="-77.3947"><ele>199.8</ele></trkpt>
      <trkpt lat="41.34349" lon="-77.39453"><ele>199.6</ele></trkpt>
      <trkpt lat="41.34311" lon="-77.39412"><ele>199.4</ele></trkpt>
      <trkpt lat="41.3427" lon="-77.39374"><ele>197.9</ele></trkpt>
      <trkpt lat="41.34228" lon="-77.39336"><ele>196.9</ele></trkpt>
      <trkpt lat="41.34168" lon="-77.39282"><ele>197.3</ele></trkpt>
      <trkpt lat="41.34109" lon="-77.39229"><ele>200.3</ele></trkpt>
      <trkpt lat="41.3406" lon="-77.3919"><ele>203.9</ele></trkpt>
      <trkpt lat="41.33991" lon="-77.39154"><ele>199.7</ele></trkpt>
      <trkpt lat="41.33954" lon="-77.3914"><ele>190.8</ele></trkpt>
      <trkpt lat="41.33905" lon="-77.39129"><ele>190.0</ele></trkpt>
      <trkpt lat="41.33871" lon="-77.39125"><ele>190.6</ele></trkpt>
      <trkpt lat="41.33817" lon="-77.39122"><ele>189.4</ele></trkpt>
      <trkpt lat="41.33763" lon="-77.3912"><ele>189.9</ele></trkpt>
      <trkpt lat="41.33684" lon="-77.39119"><ele>189.2</ele></trkpt>
      <trkpt lat="41.33606" lon="-77.39119"><ele>188.2</ele></trkpt>
      <trkpt lat="41.33533" lon="-77.39112"><ele>192.7</ele></trkpt>
      <trkpt lat="41.3346" lon="-77.39105"><ele>194.0</ele></trkpt>
      <trkpt lat="41.33387" lon="-77.39099"><ele>194.6</ele></trkpt>
      <trkpt lat="41.33314" lon="-77.39092"><ele>193.3</ele></trkpt>
      <trkpt lat="41.33288" lon="-77.39092"><ele>193.1</ele></trkpt>
      <trkpt lat="41.33219" lon="-77.39078"><ele>194.7</ele></trkpt>
      <trkpt lat="41.33149" lon="-77.39058"><ele>195.9</ele></trkpt>
      <trkpt lat="41.33098" lon="-77.39045"><ele>196.3</ele></trkpt>
      <trkpt lat="41.33049" lon="-77.39029"><ele>196.0</ele></trkpt>
      <trkpt lat="41.33" lon="-77.39013"><ele>195.9</ele></trkpt>
      <trkpt lat="41.32949" lon="-77.38995"><ele>196.0</ele></trkpt>
      <trkpt lat="41.32898" lon="-77.38976"><ele>195.1</ele></trkpt>
      <trkpt lat="41.32843" lon="-77.3895"><ele>195.6</ele></trkpt>
      <trkpt lat="41.32787" lon="-77.38925"><ele>194.5</ele></trkpt>
      <trkpt lat="41.32723" lon="-77.38882"><ele>195.8</ele></trkpt>
      <trkpt lat="41.32681" lon="-77.38855"><ele>194.3</ele></trkpt>
      <trkpt lat="41.32613" lon="-77.38799"><ele>194.5</ele></trkpt>
      <trkpt lat="41.32545" lon="-77.38744"><ele>193.5</ele></trkpt>
      <trkpt lat="41.32508" lon="-77.38707"><ele>194.2</ele></trkpt>
      <trkpt lat="41.3247" lon="-77.3867"><ele>193.8</ele></trkpt>
      <trkpt lat="41.32407" lon="-77.38603"><ele>194.5</ele></trkpt>
      <trkpt lat="41.32344" lon="-77.38535"><ele>194.1</ele></trkpt>
      <trkpt lat="41.32281" lon="-77.38468"><ele>192.2</ele></trkpt>
      <trkpt lat="41.32241" lon="-77.38413"><ele>193.8</ele></trkpt>
      <trkpt lat="41.32201" lon="-77.38358"><ele>193.4</ele></trkpt>
      <trkpt lat="41.32165" lon="-77.38301"><ele>193.5</ele></trkpt>
      <trkpt lat="41.3213" lon="-77.38244"><ele>193.7</ele></trkpt>
      <trkpt lat="41.32077" lon="-77.38176"><ele>192.5</ele></trkpt>
      <trkpt lat="41.32049" lon="-77.38151"><ele>191.7</ele></trkpt>
      <trkpt lat="41.32013" lon="-77.38122"><ele>188.6</ele></trkpt>
      <trkpt lat="41.31989" lon="-77.38105"><ele>188.0</ele></trkpt>
      <trkpt lat="41.31962" lon="-77.38089"><ele>189.2</ele></trkpt>
      <trkpt lat="41.31898" lon="-77.38063"><ele>189.0</ele></trkpt>
      <trkpt lat="41.31839" lon="-77.38047"><ele>189.2</ele></trkpt>
      <trkpt lat="41.3178" lon="-77.38036"><ele>188.6</ele></trkpt>
      <trkpt lat="41.31722" lon="-77.38026"><ele>190.8</ele></trkpt>
      <trkpt lat="41.31672" lon="-77.38018"><ele>192.2</ele></trkpt>
      <trkpt lat="41.31622" lon="-77.3801"><ele>193.6</ele></trkpt>
      <trkpt lat="41.31544" lon="-77.37995"><ele>192.9</ele></trkpt>
      <trkpt lat="41.31505" lon="-77.37983"><ele>193.2</ele></trkpt>
      <trkpt lat="41.31422" lon="-77.37946"><ele>195.3</ele></trkpt>
      <trkpt lat="41.31369" lon="-77.37913"><ele>195.1</ele></trkpt>
      <trkpt lat="41.31316" lon="-77.37879"><ele>194.2</ele></trkpt>
      <trkpt lat="41.31262" lon="-77.37834"><ele>194.7</ele></trkpt>
      <trkpt lat="41.31234" lon="-77.37807"><ele>194.6</ele></trkpt>
      <trkpt lat="41.31197" lon="-77.37764"><ele>194.4</ele></trkpt>
      <trkpt lat="41.31173" lon="-77.3773"><ele>194.6</ele></trkpt>
      <trkpt lat="41.31149" lon="-77.3769"><ele>194.8</ele></trkpt>
      <trkpt lat="41.31144" lon="-77.37676"><ele>195.2</ele></trkpt>
      <trkpt lat="41.31141" lon="-77.37665"><ele>195.5</ele></trkpt>
      <trkpt lat="41.31135" lon="-77.37627"><ele>197.9</ele></trkpt>
      <trkpt lat="41.31133" lon="-77.37623"><ele>197.8</ele></trkpt>
      <trkpt lat="41.3113" lon="-77.37622"><ele>197.3</ele></trkpt>
      <trkpt lat="41.31123" lon="-77.37622"><ele>196.0</ele></trkpt>
      <trkpt lat="41.31119" lon="-77.3762"><ele>195.4</ele></trkpt>
      <trkpt lat="41.31115" lon="-77.37614"><ele>195.2</ele></trkpt>
      <trkpt lat="41.31101" lon="-77.3758"><ele>194.7</ele></trkpt>
      <trkpt lat="41.31081" lon="-77.37514"><ele>192.5</ele></trkpt>
      <trkpt lat="41.31065" lon="-77.37435"><ele>192.9</ele></trkpt>
      <trkpt lat="41.3105" lon="-77.37321"><ele>192.7</ele></trkpt>
      <trkpt lat="41.31035" lon="-77.37208"><ele>192.5</ele></trkpt>
      <trkpt lat="41.31021" lon="-77.37094"><ele>193.0</ele></trkpt>
      <trkpt lat="41.31006" lon="-77.36981"><ele>193.5</ele></trkpt>
      <trkpt lat="41.30991" lon="-77.36868"><ele>193.5</ele></trkpt>
      <trkpt lat="41.30982" lon="-77.36795"><ele>193.5</ele></trkpt>
      <trkpt lat="41.30973" lon="-77.36723"><ele>192.8</ele></trkpt>
      <trkpt lat="41.3096" lon="-77.36625"><ele>191.7</ele></trkpt>
      <trkpt lat="41.30947" lon="-77.36528"><ele>188.8</ele></trkpt>
      <trkpt lat="41.30934" lon="-77.3643"><ele>188.7</ele></trkpt>
      <trkpt lat="41.30923" lon="-77.36341"><ele>188.7</ele></trkpt>
      <trkpt lat="41.30909" lon="-77.3623"><ele>188.7</ele></trkpt>
      <trkpt lat="41.30901" lon="-77.36168"><ele>188.8</ele></trkpt>
      <trkpt lat="41.30893" lon="-77.36107"><ele>188.8</ele></trkpt>
      <trkpt lat="41.30879" lon="-77.36025"><ele>189.3</ele></trkpt>
      <trkpt lat="41.30864" lon="-77.35963"><ele>190.9</ele></trkpt>
      <trkpt lat="41.3085" lon="-77.35901"><ele>191.7</ele></trkpt>
      <trkpt lat="41.30824" lon="-77.3584"><ele>193.4</ele></trkpt>
      <trkpt lat="41.30794" lon="-77.35789"><ele>194.9</ele></trkpt>
      <trkpt lat="41.30765" lon="-77.35746"><ele>195.3</ele></trkpt>
      <trkpt lat="41.30711" lon="-77.35677"><ele>193.9</ele></trkpt>
      <trkpt lat="41.30657" lon="-77.35607"><ele>194.0</ele></trkpt>
      <trkpt lat="41.30604" lon="-77.35538"><ele>193.7</ele></trkpt>
      <trkpt lat="41.3055" lon="-77.35467"><ele>192.7</ele></trkpt>
      <trkpt lat="41.30497" lon="-77.35396"><ele>195.4</ele></trkpt>
      <trkpt lat="41.30444" lon="-77.35326"><ele>195.9</ele></trkpt>
      <trkpt lat="41.30383" lon="-77.35245"><ele>192.7</ele></trkpt>
      <trkpt lat="41.30321" lon="-77.35164"><ele>195.6</ele></trkpt>
      <trkpt lat="41.3026" lon="-77.35083"><ele>190.9</ele></trkpt>
      <trkpt lat="41.30198" lon="-77.35002"><ele>193.8</ele></trkpt>
      <trkpt lat="41.30137" lon="-77.34921"><ele>188.5</ele></trkpt>
      <trkpt lat="41.30076" lon="-77.3484"><ele>186.9</ele></trkpt>
      <trkpt lat="41.30014" lon="-77.34759"><ele>186.7</ele></trkpt>
      <trkpt lat="41.29953" lon="-77.34678"><ele>186.0</ele></trkpt>
      <trkpt lat="41.29905" lon="-77.34616"><ele>189.2</ele></trkpt>
      <trkpt lat="41.29858" lon="-77.34554"><ele>188.3</ele></trkpt>
      <trkpt lat="41.2981" lon="-77.34491"><ele>195.1</ele></trkpt>
      <trkpt lat="41.29765" lon="-77.34448"><ele>192.9</ele></trkpt>
      <trkpt lat="41.29721" lon="-77.34404"><ele>192.7</ele></trkpt>
      <trkpt lat="41.29661" lon="-77.34369"><ele>192.0</ele></trkpt>
      <trkpt lat="41.29602" lon="-77.34334"><ele>190.3</ele></trkpt>
      <trkpt lat="41.29542" lon="-77.34299"><ele>186.6</ele></trkpt>
      <trkpt lat="41.29474" lon="-77.34266"><ele>185.4</ele></trkpt>
      <trkpt lat="41.29405" lon="-77.34234"><ele>185.8</ele></trkpt>
      <trkpt lat="41.29336" lon="-77.34202"><ele>185.9</ele></trkpt>
      <trkpt lat="41.29268" lon="-77.3417"><ele>186.0</ele></trkpt>
      <trkpt lat="41.29199" lon="-77.34138"><ele>187.5</ele></trkpt>
      <trkpt lat="41.29123" lon="-77.34107"><ele>191.4</ele></trkpt>
      <trkpt lat="41.29046" lon="-77.34077"><ele>190.3</ele></trkpt>
      <trkpt lat="41.28969" lon="-77.34046"><ele>195.3</ele></trkpt>
      <trkpt lat="41.28894" lon="-77.3402"><ele>190.5</ele></trkpt>
      <trkpt lat="41.2882" lon="-77.33995"><ele>193.1</ele></trkpt>
      <trkpt lat="41.28745" lon="-77.33969"><ele>192.5</ele></trkpt>
      <trkpt lat="41.28696" lon="-77.33947"><ele>192.5</ele></trkpt>
      <trkpt lat="41.28646" lon="-77.33925"><ele>190.4</ele></trkpt>
      <trkpt lat="41.28602" lon="-77.3389"><ele>191.1</ele></trkpt>
      <trkpt lat="41.28557" lon="-77.33855"><ele>190.6</ele></trkpt>
      <trkpt lat="41.28502" lon="-77.33799"><ele>189.5</ele></trkpt>
      <trkpt lat="41.28447" lon="-77.33744"><ele>187.5</ele></trkpt>
      <trkpt lat="41.28413" lon="-77.33686"><ele>187.7</ele></trkpt>
      <trkpt lat="41.28386" lon="-77.33632"><ele>187.8</ele></trkpt>
      <trkpt lat="41.28359" lon="-77.33577"><ele>187.6</ele></trkpt>
      <trkpt lat="41.28323" lon="-77.33482"><ele>187.4</ele></trkpt>
      <trkpt lat="41.28308" lon="-77.33418"><ele>187.3</ele></trkpt>
      <trkpt lat="41.283" lon="-77.33366"><ele>187.1</ele></trkpt>
      <trkpt lat="41.28296" lon="-77.333"><ele>187.2</ele></trkpt>
      <trkpt lat="41.28298" lon="-77.33229"><ele>187.7</ele></trkpt>
      <trkpt lat="41.28304" lon="-77.33185"><ele>186.8</ele></trkpt>
      <trkpt lat="41.28312" lon="-77.33144"><ele>186.2</ele></trkpt>
      <trkpt lat="41.28339" lon="-77.33048"><ele>186.6</ele></trkpt>
      <trkpt lat="41.2837" lon="-77.32943"><ele>186.1</ele></trkpt>
      <trkpt lat="41.28402" lon="-77.32838"><ele>185.0</ele></trkpt>
    </trkseg>
  </trk>
</gpx>
