<?xml version="1.0" encoding="UTF-8"?>
<gpx xmlns="http://www.topografix.com/GPX/1/1" version="1.1" creator="pennsylvania-trip">
  <metadata>
    <name>Morris connector — route apex to Sweet Side Cottage</name>
    <link href="https://ridewithgps.com/routes/57094763"><text>Hirschl family bike ride october '26</text></link>
  </metadata>
  <trk>
    <name>Morris connector — route apex to Sweet Side Cottage</name>
    <trkseg>
      <trkpt lat="41.565334" lon="-77.347001"></trkpt>
      <trkpt lat="41.565335" lon="-77.346996"></trkpt>
      <trkpt lat="41.565421" lon="-77.34656"></trkpt>
      <trkpt lat="41.565512" lon="-77.346245"></trkpt>
      <trkpt lat="41.565581" lon="-77.346023"></trkpt>
      <trkpt lat="41.56568" lon="-77.345742"></trkpt>
      <trkpt lat="41.565803" lon="-77.345515"></trkpt>
      <trkpt lat="41.566218" lon="-77.344871"></trkpt>
      <trkpt lat="41.566307" lon="-77.344632"></trkpt>
      <trkpt lat="41.566362" lon="-77.344332"></trkpt>
      <trkpt lat="41.56634" lon="-77.343864"></trkpt>
      <trkpt lat="41.566323" lon="-77.343585"></trkpt>
      <trkpt lat="41.566327" lon="-77.34336"></trkpt>
      <trkpt lat="41.566333" lon="-77.343227"></trkpt>
      <trkpt lat="41.566391" lon="-77.342857"></trkpt>
      <trkpt lat="41.566495" lon="-77.342338"></trkpt>
      <trkpt lat="41.566593" lon="-77.341891"></trkpt>
      <trkpt lat="41.566633" lon="-77.341628"></trkpt>
      <trkpt lat="41.566647" lon="-77.34139"></trkpt>
      <trkpt lat="41.566645" lon="-77.341028"></trkpt>
      <trkpt lat="41.566657" lon="-77.340672"></trkpt>
      <trkpt lat="41.566712" lon="-77.340235"></trkpt>
      <trkpt lat="41.566765" lon="-77.339959"></trkpt>
      <trkpt lat="41.566877" lon="-77.339543"></trkpt>
      <trkpt lat="41.566949" lon="-77.339345"></trkpt>
      <trkpt lat="41.567162" lon="-77.338902"></trkpt>
      <trkpt lat="41.56735" lon="-77.338563"></trkpt>
      <trkpt lat="41.567608" lon="-77.338127"></trkpt>
      <trkpt lat="41.567776" lon="-77.337867"></trkpt>
      <trkpt lat="41.56794" lon="-77.337672"></trkpt>
      <trkpt lat="41.568161" lon="-77.337456"></trkpt>
      <trkpt lat="41.568444" lon="-77.337223"></trkpt>
      <trkpt lat="41.568947" lon="-77.336795"></trkpt>
      <trkpt lat="41.569181" lon="-77.336599"></trkpt>
      <trkpt lat="41.569648" lon="-77.336129"></trkpt>
      <trkpt lat="41.570511" lon="-77.335107"></trkpt>
      <trkpt lat="41.570651" lon="-77.334962"></trkpt>
      <trkpt lat="41.570789" lon="-77.334871"></trkpt>
      <trkpt lat="41.570931" lon="-77.334809"></trkpt>
      <trkpt lat="41.571114" lon="-77.334779"></trkpt>
      <trkpt lat="41.572197" lon="-77.334733"></trkpt>
      <trkpt lat="41.572327" lon="-77.334735"></trkpt>
      <trkpt lat="41.57247" lon="-77.334731"></trkpt>
      <trkpt lat="41.572597" lon="-77.334687"></trkpt>
      <trkpt lat="41.572729" lon="-77.334614"></trkpt>
      <trkpt lat="41.572847" lon="-77.334506"></trkpt>
      <trkpt lat="41.572994" lon="-77.334321"></trkpt>
      <trkpt lat="41.573159" lon="-77.334044"></trkpt>
      <trkpt lat="41.57328" lon="-77.333792"></trkpt>
      <trkpt lat="41.573388" lon="-77.333487"></trkpt>
      <trkpt lat="41.573491" lon="-77.333123"></trkpt>
      <trkpt lat="41.57369" lon="-77.332316"></trkpt>
      <trkpt lat="41.573806" lon="-77.331774"></trkpt>
      <trkpt lat="41.573896" lon="-77.331107"></trkpt>
      <trkpt lat="41.574055" lon="-77.329872"></trkpt>
      <trkpt lat="41.574133" lon="-77.329267"></trkpt>
      <trkpt lat="41.574211" lon="-77.328879"></trkpt>
      <trkpt lat="41.574347" lon="-77.328474"></trkpt>
      <trkpt lat="41.574519" lon="-77.32799"></trkpt>
      <trkpt lat="41.574741" lon="-77.327317"></trkpt>
      <trkpt lat="41.57488" lon="-77.326895"></trkpt>
      <trkpt lat="41.575036" lon="-77.326525"></trkpt>
      <trkpt lat="41.57517" lon="-77.326251"></trkpt>
      <trkpt lat="41.575516" lon="-77.325439"></trkpt>
      <trkpt lat="41.576193" lon="-77.32422"></trkpt>
      <trkpt lat="41.576546" lon="-77.323624"></trkpt>
      <trkpt lat="41.577422" lon="-77.322377"></trkpt>
      <trkpt lat="41.5777" lon="-77.322001"></trkpt>
      <trkpt lat="41.577881" lon="-77.32181"></trkpt>
      <trkpt lat="41.578141" lon="-77.321658"></trkpt>
      <trkpt lat="41.57862" lon="-77.321418"></trkpt>
      <trkpt lat="41.578907" lon="-77.321264"></trkpt>
      <trkpt lat="41.579303" lon="-77.321005"></trkpt>
      <trkpt lat="41.579779" lon="-77.320599"></trkpt>
      <trkpt lat="41.579952" lon="-77.320436"></trkpt>
      <trkpt lat="41.580151" lon="-77.320216"></trkpt>
      <trkpt lat="41.580335" lon="-77.319959"></trkpt>
      <trkpt lat="41.580497" lon="-77.319628"></trkpt>
      <trkpt lat="41.580684" lon="-77.319143"></trkpt>
      <trkpt lat="41.580801" lon="-77.318781"></trkpt>
      <trkpt lat="41.581118" lon="-77.317784"></trkpt>
      <trkpt lat="41.581544" lon="-77.316383"></trkpt>
      <trkpt lat="41.581945" lon="-77.315028"></trkpt>
      <trkpt lat="41.582168" lon="-77.31433"></trkpt>
      <trkpt lat="41.582483" lon="-77.313354"></trkpt>
      <trkpt lat="41.582603" lon="-77.312958"></trkpt>
      <trkpt lat="41.582706" lon="-77.312435"></trkpt>
      <trkpt lat="41.582804" lon="-77.311775"></trkpt>
      <trkpt lat="41.582857" lon="-77.311376"></trkpt>
      <trkpt lat="41.582951" lon="-77.310399"></trkpt>
      <trkpt lat="41.583052" lon="-77.30958"></trkpt>
      <trkpt lat="41.58322" lon="-77.30834"></trkpt>
      <trkpt lat="41.583324" lon="-77.307673"></trkpt>
      <trkpt lat="41.583412" lon="-77.307221"></trkpt>
      <trkpt lat="41.583513" lon="-77.306874"></trkpt>
      <trkpt lat="41.583674" lon="-77.306466"></trkpt>
      <trkpt lat="41.58403" lon="-77.305631"></trkpt>
      <trkpt lat="41.586215" lon="-77.300652"></trkpt>
      <trkpt lat="41.58639" lon="-77.300285"></trkpt>
      <trkpt lat="41.586531" lon="-77.299965"></trkpt>
      <trkpt lat="41.586663" lon="-77.299728"></trkpt>
      <trkpt lat="41.586831" lon="-77.299553"></trkpt>
      <trkpt lat="41.587039" lon="-77.29944"></trkpt>
      <trkpt lat="41.587286" lon="-77.299343"></trkpt>
      <trkpt lat="41.587324" lon="-77.299305"></trkpt>
      <trkpt lat="41.587367" lon="-77.299212"></trkpt>
      <trkpt lat="41.587292" lon="-77.299131"></trkpt>
      <trkpt lat="41.587218" lon="-77.29905"></trkpt>
      <trkpt lat="41.587145" lon="-77.298955"></trkpt>
      <trkpt lat="41.587078" lon="-77.298843"></trkpt>
      <trkpt lat="41.586994" lon="-77.298669"></trkpt>
    </trkseg>
  </trk>
</gpx>
